,ID,Label,Alt Label 1,Alt Label 2,Definition,Definition Source,RDF Type,Parent,Parent,Parent,Parent,Equivalent to definedByProbe,Equivalent to definedByProcess,Equivalent to definedByDependence,Equivalent to definedByPurpose,Equivalent,Equivalent ,Disjoint Classes,Individual,Property Assertions,Super Property,Domain,Range,Characteristic
,ID,A rdfs:label,A http://www.w3.org/2004/02/skos/core#altLabel,A http://www.w3.org/2004/02/skos/core#altLabel,A IAO:0000115,A IAO:0000119,TYPE,SC %,SC %,SC %,SC %,EC definedByProbe some %,EC definedByProcess some %,EC definedByDependence some %,EC definedByPurpose some  %,EC %,EC %,DC %,TI %,I 'hasTechnique',SP %,DOMAIN,RANGE,CHARACTERISTIC SPLIT=|
,,,,,,,,,,,,,,,,,,,,,,,,
Base IRI,,http://purl.org/pan-science/PaNET/,,,,,,,,,,,,,,,,,,,,,,
Root name,,PaNET,,,,,,,,,,,,,,,,,,,,,,
ID number,,,,,,,,,,,,,,,,,,,,,,,,
1,http://purl.org/pan-science/PaNET/PaNET00001,photon and neutron technique,,,"A technique in the domain of neutron, muon and accelerator-based light sources",,owl:Class,owl:Thing,,,,,,,,,,,,,,,,
,,,,,,,,,,,,,,,,,,,,,,,,
2,http://purl.org/pan-science/PaNET/PaNET00002,defined by experimental probe,,,A technique defined by its experimental probe type,,owl:Class,,,,,Probe,,,,,,,,,,,,
3,http://purl.org/pan-science/PaNET/PaNET00003,defined by process,,,A technique defined by a physical process,,owl:Class,,,,,,Process,,,,,,,,,,,
4,http://purl.org/pan-science/PaNET/PaNET00004,defined by functional dependence,,,A technique defined by its functional dependence,,owl:Class,,,,,,,Functional Dependence,,,,,,,,,,
5,http://purl.org/pan-science/PaNET/PaNET00005,defined by purpose,,,A technique defined by its goal or purpose,,owl:Class,,,,,,,,Purpose,,,,,,,,,
,,,,,,,,,,,,,,,,,,,,,,,,
,,,,,,,,,,,,,,,,,,,,,,,,
100,http://purl.org/pan-science/PaNET/PaNET00100,photon technique,,,,,owl:Class,,,,,photon,,,,,,,,,,,,
101,http://purl.org/pan-science/PaNET/PaNET00101,neutron technique,,,,,owl:Class,,,,,neutron,,,,,,,,,,,,
102,http://purl.org/pan-science/PaNET/PaNET00102,muon technique,,,,,owl:Class,,,,,muon,,,,,,,,,,,,
103,http://purl.org/pan-science/PaNET/PaNET00103,solid probe technique,,,,,owl:Class,,,,,solid probe,,,,,,,,,,,,
104,http://purl.org/pan-science/PaNET/PaNET00104,scanning probe technique,,,,,owl:Class,,,,,scanning probe,,,,,,,,,,,,
105,http://purl.org/pan-science/PaNET/PaNET00105,pulsed probe technique,,,A technique for which a pulsed probe is essential,,owl:Class,,,,,pulsed probe,,,,,,,,,,,,
106,http://purl.org/pan-science/PaNET/PaNET00106,microfocussed probe technique,,,,,owl:Class,,,,,microfocussed probe,,,,,,,,,,,,
,,,,,,,,,,,,,,,,,,,,,,,,
200,http://purl.org/pan-science/PaNET/PaNET00200,scattering technique,,,Any phenomenon where a particle of the same type as the probe is emitted,,owl:Class,,,,,,scattering,,,,,,,,,,,
201,http://purl.org/pan-science/PaNET/PaNET00201,emission technique,,,Independent of probe; classed also as scattering if the probe and emitted particles are of the same type; disjoint with elastic scattering,,owl:Class,,,,,,emission,,,,,,,,,,,
202,http://purl.org/pan-science/PaNET/PaNET00202,absorption technique,,,,,owl:Class,,,,,,absorption,,,,,,,,,,,
203,http://purl.org/pan-science/PaNET/PaNET00203,propagation technique,forward scattering technique,,,,owl:Class,,,,,,propagation,,,,,,,,,,,
204,http://purl.org/pan-science/PaNET/PaNET00204,refraction technique,,,,https://en.wikipedia.org/wiki/Refraction,owl:Class,,,,,,refraction,,,,,,,,,,,
205,http://purl.org/pan-science/PaNET/PaNET00205,reflection technique,,,,https://en.wikipedia.org/wiki/Reflection_(physics),owl:Class,,,,,,reflection,,,,,,,,,,,
206,http://purl.org/pan-science/PaNET/PaNET00206,resonance phenomenon technique,,,,,owl:Class,,,,,,resonance phenomenon,,,,,,,,,,,
208,http://purl.org/pan-science/PaNET/PaNET00208,dispersive technique,,,,,owl:Class,,,,,,dispersion,,,,,,,,,,,
209,http://purl.org/pan-science/PaNET/PaNET00209,interferometry technique,,,,,owl:Class,,,,,,interferometry,,,,,,,,,,,
210,http://purl.org/pan-science/PaNET/PaNET00210,force measurement technique,,,,,owl:Class,,,,,,force measurement,,,,,,,,,,,
211,http://purl.org/pan-science/PaNET/PaNET00211,nonlinear technique,,,,,owl:Class,,,,,,nonlinear interaction,,,,,,,,,,,
,,,,,,,,,,,,,,,,,,,,,,,,
300,http://purl.org/pan-science/PaNET/PaNET00300,versus energy technique,,,,,owl:Class,,,,,,,energy,,,,,,,,,,
301,http://purl.org/pan-science/PaNET/PaNET00301,versus momentum transfer technique,,,,,owl:Class,,,,,,,momentum transfer,,,,,,,,,,
302,http://purl.org/pan-science/PaNET/PaNET00302,versus polarization technique,,,,,owl:Class,,,,,,,polarization,,,,,,,,,,
303,http://purl.org/pan-science/PaNET/PaNET00303,versus position technique,,,,,owl:Class,,,,,,,position,,,,,,,,,,
304,http://purl.org/pan-science/PaNET/PaNET00304,versus time technique,,,,,owl:Class,,,,,,,time,,,,,,,,,,
305,http://purl.org/pan-science/PaNET/PaNET00305,versus emission mass technique,,,,,owl:Class,,,,,,,emission mass,,,,,,,,,,
306,http://purl.org/pan-science/PaNET/PaNET00306,versus sample state technique,,,,,owl:Class,,,,,,,sample state,,,,,,,,,,
,,,,,,,,,,,,,,,,,,,,,,,,
400,http://purl.org/pan-science/PaNET/PaNET00400,atomic structure technique,,,,,owl:Class,,,,,,,,obtain atomic structure,,,,,,,,,
401,http://purl.org/pan-science/PaNET/PaNET00401,spatial map technique,,,,,owl:Class,,,,,,,,obtain spatial map,,,,,,,,,
402,http://purl.org/pan-science/PaNET/PaNET00402,electronic ground state properties technique,,,,,owl:Class,,,,,,,,obtain electronic ground state properties,,,,,,,,,
403,http://purl.org/pan-science/PaNET/PaNET00403,dynamics technique,,,,,owl:Class,,,,,,,,obtain dynamics,,,,,,,,,
404,http://purl.org/pan-science/PaNET/PaNET00404,therapeutic technique,,,,,owl:Class,,,,,,,,therapy,,,,,,,,,
405,http://purl.org/pan-science/PaNET/PaNET00405,drug fragment binding technique,,,,,owl:Class,,,,,,,,drug fragment binding,,,,,,,,,
406,http://purl.org/pan-science/PaNET/PaNET00406,internal field technique,,,,,owl:Class,,,,,,,,obtain internal field,,,,,,,,,
407,http://purl.org/pan-science/PaNET/PaNET00407,excitations technique,,,,,owl:Class,,,,,,,,characterize excitations,,,,,,,,,
408,http://purl.org/pan-science/PaNET/PaNET00408,manufacturing technique,,,,,owl:Class,,,,,,,,manufacturing,,,,,,,,,
409,http://purl.org/pan-science/PaNET/PaNET00409,testing technique,,,,,owl:Class,,,,,,,,testing,,,,,,,,,
410,http://purl.org/pan-science/PaNET/PaNET00410,medical technique,,,,,owl:Class,,,,,,,,medical application,,,,,,,,,
411,http://purl.org/pan-science/PaNET/PaNET00411,chiral determination technique,,,,,owl:Class,,,,,,,,chiral determination,,,,,,,,,
207,http://purl.org/pan-science/PaNET/PaNET00207,magnetism technique,,,,,owl:Class,,,,,,,,magnetism study,,,,,,,,,
,,,,,,,,,,,,,,,,,,,,,,,,
,,,,,,,,,,,,,,,,,,,,,,,,
1000,http://purl.org/pan-science/PaNET/PaNET01000,time of flight technique,TOF,,,,owl:Class,(definedByProbe some 'pulsed probe'),,,,,,,,,,,,,,,,
1001,http://purl.org/pan-science/PaNET/PaNET01001,neutron time of flight technique,,,,,owl:Class,,,,,neutron,,,,time of flight technique,,,,,,,,
1002,http://purl.org/pan-science/PaNET/PaNET01002,ultrafast probe technique,femtosecond probe,,,,owl:Class,,,,,ultrafast probe,,,,,,,,,,,,
1003,http://purl.org/pan-science/PaNET/PaNET01003,single shot technique,,,,,owl:Class,(definedByProbe some 'pulsed probe'),,,,,,,,,,,,,,,,
1004,http://purl.org/pan-science/PaNET/PaNET01004,nanofocussed probe technique,,,,,owl:Class,,,,,nanofocussed probe,,,,,,,,,,,,
1005,http://purl.org/pan-science/PaNET/PaNET01005,IR photon probe technique,,,,,owl:Class,,,,,IR photon,,,,,,,,,,,,
1006,http://purl.org/pan-science/PaNET/PaNET01006,THz photon probe technique,,,,,owl:Class,,,,,THz photon,,,,,,,,,,,,
1007,http://purl.org/pan-science/PaNET/PaNET01007,UV visible photon probe technique,,,,,owl:Class,,,,,UV visible photon,,,,,,,,,,,,
1008,http://purl.org/pan-science/PaNET/PaNET01008,visible photon probe technique,,,,,owl:Class,,,,,visible photon,,,,,,,,,,,,
1009,http://purl.org/pan-science/PaNET/PaNET01009,UV photon probe technique,,,,,owl:Class,,,,,UV photon,,,,,,,,,,,,
1010,http://purl.org/pan-science/PaNET/PaNET01010,VUV photon probe technique,,,,,owl:Class,,,,,VUV photon,,,,,,,,,,,,
1011,http://purl.org/pan-science/PaNET/PaNET01011,EUV photon probe technique,,,,,owl:Class,,,,,EUV photon,,,,,,,,,,,,
1012,http://purl.org/pan-science/PaNET/PaNET01012,x-ray probe technique,,,,,owl:Class,,,,,x-ray,,,,,,,,,,,,
1013,http://purl.org/pan-science/PaNET/PaNET01013,hard x-ray probe technique,,,,,owl:Class,,,,,hard x-ray,,,,,,,,,,,,
1014,http://purl.org/pan-science/PaNET/PaNET01014,tender x-ray probe technique,,,"Energy is between hard and soft x-ray, e.g. sulphur K edge",,owl:Class,,,,,tender x-ray,,,,,,,,,,,,
1015,http://purl.org/pan-science/PaNET/PaNET01015,soft x-ray probe technique,,,,,owl:Class,,,,,soft x-ray,,,,,,,,,,,,
1016,http://purl.org/pan-science/PaNET/PaNET01016,thermal neutron probe technique,,,,https://en.wikipedia.org/wiki/Neutron_temperature#Thermal,owl:Class,,,,,thermal neutron beam,,,,,,,,,,,,
1017,http://purl.org/pan-science/PaNET/PaNET01017,cold neutron probe technique,,,,,owl:Class,,,,,cold neutron beam,,,,,,,,,,,,
1018,http://purl.org/pan-science/PaNET/PaNET01018,monochromatic neutron probe technique,,,,,owl:Class,,,,,monochromatic neutron beam,,,,,,,,,,,,
1019,http://purl.org/pan-science/PaNET/PaNET01019,pulsed neutron TOF probe technique,,,,,owl:Class,neutron technique,pulsed probe technique,,,,,,,,,,,,,,,
1020,http://purl.org/pan-science/PaNET/PaNET01020,elastic scattering technique,,,,https://en.wikipedia.org/wiki/Elastic_scattering,owl:Class,,,,,,elastic scattering,,,,,,,,,,,
1021,http://purl.org/pan-science/PaNET/PaNET01021,diffuse scattering technique,,,,,owl:Class,,,,,,diffuse scattering,,,,,,,,,,,
1022,http://purl.org/pan-science/PaNET/PaNET01022,diffraction technique,,,,https://en.wikipedia.org/wiki/Diffraction,owl:Class,,,,,,diffraction,,,,,,,,,,,
1022,http://purl.org/pan-science/PaNET/PaNET01022,diffraction technique,,,,,owl:Class,,,,,,,,,CHMO:0000182,,,,,,,,
1022,http://purl.org/pan-science/PaNET/PaNET01022,diffraction technique,,,,,owl:Class,,,,,,,,,WD:Q133900,,,,,,,,
1023,http://purl.org/pan-science/PaNET/PaNET01023,dynamical diffraction technique,,,,https://en.wikipedia.org/wiki/Dynamical_theory_of_diffraction,owl:Class,,,,,,dynamical diffraction,,,,,,,,,,,
1024,http://purl.org/pan-science/PaNET/PaNET01024,coherent diffraction technique,,,Probe is highly coherent over illuminated sample,,owl:Class,,,,,,coherent diffraction,,,,,,,,,,,
1025,http://purl.org/pan-science/PaNET/PaNET01025,reference beam technique,,,e.g. holography,https://en.wikipedia.org/wiki/Reference_beam,owl:Class,,,,,,reference beam,,,,,,,,,,,
1026,http://purl.org/pan-science/PaNET/PaNET01026,atomic scale diffraction technique,,,essential diffracting structure(s),,owl:Class,(definedByProcess some 'diffraction'),,,,,,,,,,,,,,,,
1027,http://purl.org/pan-science/PaNET/PaNET01027,atomic scale diffraction 3D volume technique,,,,,owl:Class,atomic scale diffraction technique,,,,,,,,,,,,,,,,
1028,http://purl.org/pan-science/PaNET/PaNET01028,atomic scale diffraction 3D volume 3D periodic technique,,,,,owl:Class,atomic scale diffraction 3D volume technique,,,,,,,,,,,,,,,,
1029,http://purl.org/pan-science/PaNET/PaNET01029,single crystal diffraction technique,,,,,owl:Class,atomic scale diffraction 3D volume 3D periodic technique,,,,,,,,,,,,,,,,
1030,http://purl.org/pan-science/PaNET/PaNET01030,powder diffraction technique,,,,https://en.wikipedia.org/wiki/Powder_diffraction,owl:Class,atomic scale diffraction 3D volume 3D periodic technique,,,,,,,,,,,,,,,,
1031,http://purl.org/pan-science/PaNET/PaNET01031,atomic scale diffraction 2D surface or film technique,,,,,owl:Class,atomic scale diffraction technique,,,,,,,,,,,,,,,,
1032,http://purl.org/pan-science/PaNET/PaNET01032,micro scale diffraction technique,,,,,owl:Class,(definedByProcess some 'diffraction'),,,,,,,,,,,,,,,,
1033,http://purl.org/pan-science/PaNET/PaNET01033,incoherent scattering technique,,,,https://en.wikipedia.org/wiki/Incoherent_scatter,owl:Class,,,,,,incoherent scattering,,,,,,,,,,,
1034,http://purl.org/pan-science/PaNET/PaNET01034,inelastic scattering technique,,,,https://en.wikipedia.org/wiki/Inelastic_scattering,owl:Class,,,,,,inelastic scattering,,,,,,,,,,,
1035,http://purl.org/pan-science/PaNET/PaNET01035,quasielastic scattering technique,,,,https://en.wikipedia.org/wiki/Quasielastic_neutron_scattering,owl:Class,,,,,,quasielastic scattering,,,,,,,,,,,
1036,http://purl.org/pan-science/PaNET/PaNET01036,high momentum transfer scattering technique,,,,,owl:Class,,,,,,high momentum transfer scattering,,,,,,,,,,,
1037,http://purl.org/pan-science/PaNET/PaNET01037,low momentum transfer scattering technique,,,,,owl:Class,,,,,,low momentum transfer scattering,,,,,,,,,,,
1038,http://purl.org/pan-science/PaNET/PaNET01038,ultra low momentum transfer scattering technique,,,,,owl:Class,,,,,,ultra low momentum transfer scattering,,,,,,,,,,,
1039,http://purl.org/pan-science/PaNET/PaNET01039,low surface momentum transfer scattering technique,,,,,owl:Class,,,,,,low surface momentum transfer scattering,,,,,,,,,,,
1040,http://purl.org/pan-science/PaNET/PaNET01040,high momentum transfer resolution scattering technique,,,,,owl:Class,(definedByProcess some 'scattering'),,,,,,,,,,,,,,,,
1041,http://purl.org/pan-science/PaNET/PaNET01041,coherent emission technique,,,,,owl:Class,,,,,,coherent emission,,,,,,,,,,,
1042,http://purl.org/pan-science/PaNET/PaNET01042,high energy resolution emission technique,,,,,owl:Class,(definedByProcess some 'emission'),,,,,,,,,,,,,,,,
1043,http://purl.org/pan-science/PaNET/PaNET01043,photon emission technique,,,,,owl:Class,,,,,,photon emission,,,,,,,,,,,
1044,http://purl.org/pan-science/PaNET/PaNET01044,visible photon emission technique,,,,,owl:Class,,,,,,visible photon emission,,,,,,,,,,,
1045,http://purl.org/pan-science/PaNET/PaNET01045,x-ray emission technique,,,,,owl:Class,,,,,,x-ray emission,,,,,,,,,,,
1046,http://purl.org/pan-science/PaNET/PaNET01046,gamma-ray emission technique,,,,,owl:Class,,,,,,gamma-ray emission,,,,,,,,,,,
1047,http://purl.org/pan-science/PaNET/PaNET01047,electron emission technique,,,,https://en.wikipedia.org/wiki/Electron_emission,owl:Class,,,,,,electron emission,,,,,,,,,,,
1048,http://purl.org/pan-science/PaNET/PaNET01048,ion emission technique,,,,,owl:Class,,,,,,ion emission,,,,,,,,,,,
1049,http://purl.org/pan-science/PaNET/PaNET01049,resonant scattering technique,,,,,owl:Class,resonance phenomenon technique,scattering technique,,,,,,,,,,,,,,,
1050,http://purl.org/pan-science/PaNET/PaNET01050,nuclear resonance technique,,,,,owl:Class,,,,,,nuclear resonance,,,,,,,,,,,
1051,http://purl.org/pan-science/PaNET/PaNET01051,muon spin resonance technique,MuSR,,,https://en.wikipedia.org/wiki/Muon_spin_spectroscopy,owl:Class,,,,,,muon spin resonance,,,,,,,,,,,
1052,http://purl.org/pan-science/PaNET/PaNET01052,spin echo technique,,,,https://en.wikipedia.org/wiki/Spin_echo,owl:Class,,,,,,spin echo technique,,,,,,,,,,,
1053,http://purl.org/pan-science/PaNET/PaNET01053,electronic excitation technique,,,,,owl:Class,,,,,,electronic excitation,,,,,,,,,,,
1054,http://purl.org/pan-science/PaNET/PaNET01054,atomic core excitation technique,,,,,owl:Class,,,,,,atomic core excitation,,,,,,,,,,,
1055,http://purl.org/pan-science/PaNET/PaNET01055,photo excitation technique,,,,,owl:Class,,,,,,photo excitation,,,,,,,,,,,
1056,http://purl.org/pan-science/PaNET/PaNET01056,versus incident energy technique,,,,,owl:Class,,,,,,,incident energy,,,,,,,,,,
1057,http://purl.org/pan-science/PaNET/PaNET01057,versus emitted energy technique,,,,,owl:Class,,,,,,,emitted energy,,,,,,,,,,
1058,http://purl.org/pan-science/PaNET/PaNET01058,versus emission momentum technique,,,,,owl:Class,,,,,,,emission momentum,,,,,,,,,,
1059,http://purl.org/pan-science/PaNET/PaNET01059,versus energy loss technique,,,,,owl:Class,,,,,,,energy loss,,,,,,,,,,
1060,http://purl.org/pan-science/PaNET/PaNET01060,versus emitted polarization technique,,,,,owl:Class,,,,,,,emitted polarization,,,,,,,,,,
1061,http://purl.org/pan-science/PaNET/PaNET01061,versus photon linear polarization technique,,,,,owl:Class,versus polarization technique,photon technique,,,,,,,,,,,,,,,
1062,http://purl.org/pan-science/PaNET/PaNET01062,versus photon circular polarization technique,,,,,owl:Class,versus polarization technique,photon technique,,,,,,,,,,,,,,,
1063,http://purl.org/pan-science/PaNET/PaNET01063,versus time ultrafast technique,,,,,owl:Class,(definedByDependence some 'time'),,,,,,,,,,,,,,,,
1064,http://purl.org/pan-science/PaNET/PaNET01064,versus sample temperature technique,,,,,owl:Class,,,,,,,sample temperature,,,,,,,,,,
1065,http://purl.org/pan-science/PaNET/PaNET01065,versus sample pressure technique,,,,,owl:Class,,,,,,,sample pressure,,,,,,,,,,
1066,http://purl.org/pan-science/PaNET/PaNET01066,versus sample magnetic field technique,,,,,owl:Class,,,,,,,sample magnetic field,,,,,,,,,,
1067,http://purl.org/pan-science/PaNET/PaNET01067,versus sample electric field technique,,,,,owl:Class,,,,,,,sample electric field,,,,,,,,,,
1068,http://purl.org/pan-science/PaNET/PaNET01068,obtain high resolution spatial map technique,,,,,owl:Class,,,,,,,,obtain high resolution spatial map,,,,,,,,,
1069,http://purl.org/pan-science/PaNET/PaNET01069,microscopy technique,,,,https://en.wikipedia.org/wiki/Microscopy,owl:Class,,,,,,,,,obtain high resolution spatial map technique,,,,,,,,
1070,http://purl.org/pan-science/PaNET/PaNET01070,obtain ultrahigh resolution spatial map technique,,,,,owl:Class,obtain high resolution spatial map technique,,,,,,,,,,,,,,,,
1071,http://purl.org/pan-science/PaNET/PaNET01071,obtain 3D spatial map technique,,,,,owl:Class,,,,,,,,obtain 3D spatial map,,,,,,,,,
1072,http://purl.org/pan-science/PaNET/PaNET01072,obtain electronic density of states technique,,,,https://en.wikipedia.org/wiki/Density_of_states,owl:Class,,,,,,,,obtain electronic density of states,,,,,,,,,
1073,http://purl.org/pan-science/PaNET/PaNET01073,obtain electronic density of occupied states technique,,,,,owl:Class,,,,,,,,obtain electronic density of occupied states,,,,,,,,,
1074,http://purl.org/pan-science/PaNET/PaNET01074,obtain electronic density of unoccupied states technique,,,,,owl:Class,,,,,,,,obtain electronic density of unoccupied states,,,,,,,,,
1075,http://purl.org/pan-science/PaNET/PaNET01075,obtain electronic band structure technique,,,,https://en.wikipedia.org/wiki/Electronic_band_structure,owl:Class,,,,,,,,obtain electronic band structure,,,,,,,,,
1076,http://purl.org/pan-science/PaNET/PaNET01076,obtain atomic tensor properties technique,,,,,owl:Class,,,,,,,,obtain atomic tensor properties,,,,,,,,,
1077,http://purl.org/pan-science/PaNET/PaNET01077,obtain magnetic vector technique,,,,,owl:Class,,,,,,,,obtain magnetic vector,,,,,,,,,
1078,http://purl.org/pan-science/PaNET/PaNET01078,obtain charge quadrupole technique,,,,,owl:Class,,,,,,,,obtain charge quadrupole,,,,,,,,,
1079,http://purl.org/pan-science/PaNET/PaNET01079,obtain atomic magnetic structure technique,,,,https://en.wikipedia.org/wiki/Magnetic_structure,owl:Class,,,,,,,,obtain atomic magnetic structure,,,,,,,,,
1080,http://purl.org/pan-science/PaNET/PaNET01080,obtain charge density technique,,,,,owl:Class,,,,,,,,obtain charge density,,,,,,,,,
1081,http://purl.org/pan-science/PaNET/PaNET01081,obtain magnetic density technique,,,,,owl:Class,,,,,,,,obtain magnetic density,,,,,,,,,
1082,http://purl.org/pan-science/PaNET/PaNET01082,crystallography technique,obtain crystal structure,,,https://en.wikipedia.org/wiki/Crystallography,owl:Class,,,,,,,,crystallographic study,,,,,,,,,
1083,http://purl.org/pan-science/PaNET/PaNET01083,obtain local coordination technique,,,,https://en.wikipedia.org/wiki/Crystal_structure#Atomic_coordination,owl:Class,,,,,,,,obtain local coordination,,,,,,,,,
1084,http://purl.org/pan-science/PaNET/PaNET01084,time dependent study technique,time resolved study,,,,owl:Class,versus time technique,,,,,,,,,,,,,,,,
1085,http://purl.org/pan-science/PaNET/PaNET01085,characterize electronic excitations technique,,,,,owl:Class,,,,,,,,characterize electronic excitations,,,,,,,,,
1086,http://purl.org/pan-science/PaNET/PaNET01086,characterize magnetic excitations technique,,,,,owl:Class,,,,,,,,characterize magnetic excitations,,,,,,,,,
1087,http://purl.org/pan-science/PaNET/PaNET01087,characterize lattice excitations technique,,,,,owl:Class,,,,,,,,characterize lattice excitations,,,,,,,,,
1088,http://purl.org/pan-science/PaNET/PaNET01088,absorption contrast imaging technique,,,Absorption Contrast Imaging,,owl:Class,,,,,,,,,('absorption technique' and 'imaging technique'),,,,,,,,
1089,http://purl.org/pan-science/PaNET/PaNET01089,angle resolved photoemission spectroscopy technique,ARPES,,Angle resolved photoemission spectroscopy,https://en.wikipedia.org/wiki/Angle-resolved_photoemission_spectroscopy,owl:Class,,,,,,,,,('photoelectron emission technique' and 'versus emission momentum technique' and 'obtain electronic band structure technique'),,,,,,,,
1090,http://purl.org/pan-science/PaNET/PaNET01090,dichroism technique,,,Any technique that depends essentially on probe polarization,,owl:Class,versus polarization technique,photon technique,,,,,,,,,,,,,,,
1091,http://purl.org/pan-science/PaNET/PaNET01091,dichroism spectroscopy technique,,,,,owl:Class,,,,,,,,,('dichroism technique' and 'spectroscopy technique'),,,,,,,,
1092,http://purl.org/pan-science/PaNET/PaNET01092,emission spectroscopy technique,,,,,owl:Class,,,,,,,,,('emission technique' and 'versus emitted energy technique'),,,,,,,,
1093,http://purl.org/pan-science/PaNET/PaNET01093,photoemission spectroscopy technique,,,,https://en.wikipedia.org/wiki/Photoemission_spectroscopy,owl:Class,,,,,,,,,('emission spectroscopy technique' and 'photoelectron emission technique'),,,,,,,,
1094,http://purl.org/pan-science/PaNET/PaNET01094,fluorescence luminescence technique,,,,,owl:Class,,,,,,fluorescence luminescence,,,,,,,,,,,
1095,http://purl.org/pan-science/PaNET/PaNET01095,x-ray fluorescence spectroscopy technique,,,,,owl:Class,,,,,,,,,('x-ray probe technique' and 'x-ray emission technique' and 'versus incident energy technique'),,,,,,,,
1096,http://purl.org/pan-science/PaNET/PaNET01096,fluorescence tomography technique,,,,,owl:Class,,,,,,,,,('photon emission technique' and 'tomography technique'),,,,,,,,
1097,http://purl.org/pan-science/PaNET/PaNET01097,gamma spectroscopy technique,,,,https://en.wikipedia.org/wiki/Gamma_spectroscopy,owl:Class,,,,,,,,,('gamma-ray emission technique' and 'spectroscopy technique'),,,,,,,,
1098,http://purl.org/pan-science/PaNET/PaNET01098,grazing incidence diffraction technique,,,,https://en.wikipedia.org/wiki/Grazing_incidence_diffraction,owl:Class,,,,,,grazing incidence diffraction,,,,,,,,,,,
1099,http://purl.org/pan-science/PaNET/PaNET01099,grazing incidence small angle scattering technique,GISAS,grazing incidence SAS,,https://en.wikipedia.org/wiki/Grazing-incidence_small-angle_scattering,owl:Class,,,,,,,,,('grazing incidence diffraction technique' and 'small angle scattering technique'),,,,,,,,
1100,http://purl.org/pan-science/PaNET/PaNET01100,neutron powder diffraction technique,NPD,,A neutron powder diffraction technique,,owl:Class,,,,,,,,,('powder diffraction technique' and 'neutron diffraction technique'),,,,,,,,
1101,http://purl.org/pan-science/PaNET/PaNET01101,x-ray powder diffraction technique,XPD,,,,owl:Class,,,,,,,,,('powder diffraction technique' and 'x-ray probe technique'),,,,,,,,
1102,http://purl.org/pan-science/PaNET/PaNET01102,x-ray single crystal diffraction technique,single crystal x-ray diffraction,SXRD,,,owl:Class,,,,,,,,,('x-ray probe technique' and 'single crystal diffraction technique'),,,,,,,,
1103,http://purl.org/pan-science/PaNET/PaNET01103,hard x-ray photoelectron spectroscopy technique,HAXPES,hard photoelectron spectroscopy,,,owl:Class,,,,,,,,,('hard x-ray probe technique' and 'photoelectron spectroscopy technique'),,,,,,,,
1104,http://purl.org/pan-science/PaNET/PaNET01104,high resolution photoelectron spectroscopy technique,,,,,owl:Class,,,,,,,,,('spectroscopy technique' and 'photoelectron emission technique' and 'versus emitted energy technique' and 'high energy resolution emission technique'),,,,,,,,
1105,http://purl.org/pan-science/PaNET/PaNET01105,holography technique,,,,https://en.wikipedia.org/wiki/Holography,owl:Class,reference beam technique,imaging technique,,,,,,,,,,,,,,,
1106,http://purl.org/pan-science/PaNET/PaNET01106,imaging technique,,,,,owl:Class,,,,,,,,,,spatial map technique,,,,,,,
1107,http://purl.org/pan-science/PaNET/PaNET01107,inelastic small angle scattering technique,inelastic SAS,,,,owl:Class,,,,,,,,,('inelastic scattering technique' and 'small angle scattering technique'),,,,,,,,
1108,http://purl.org/pan-science/PaNET/PaNET01108,inelastic scattering spectroscopy technique,,,,,owl:Class,,,,,,,,,('inelastic scattering technique' and 'versus energy loss technique'),,,,,,,,
1109,http://purl.org/pan-science/PaNET/PaNET01109,infrared spectroscopy technique,IR spectroscopy,,,https://en.wikipedia.org/wiki/Infrared_spectroscopy,owl:Class,,,,,,,,,('IR photon probe technique' and 'spectroscopy technique'),,,,,,,,
1110,http://purl.org/pan-science/PaNET/PaNET01110,infrared microspectroscopy technique,,,,,owl:Class,,,,,,,,,('infrared spectroscopy technique' and 'microscopy technique'),,,,,,,,
1111,http://purl.org/pan-science/PaNET/PaNET01111,luminescence technique,,,,https://en.wikipedia.org/wiki/Luminescence,owl:Class,,,,,,luminescence,,,,,,,,,,,
1112,http://purl.org/pan-science/PaNET/PaNET01112,fluorescence imaging technique,,,,,owl:Class,,,,,,,,,('photon emission technique' and 'imaging technique'),,,,,,,,
1113,http://purl.org/pan-science/PaNET/PaNET01113,fluorescence microscopy technique,microfluorescence,Micro XRF,,,owl:Class,,,,,,,,,('fluorescence imaging technique' and 'microscopy technique'),,,,,,,,
1114,http://purl.org/pan-science/PaNET/PaNET01114,muon spectroscopy technique,,,,https://en.wikipedia.org/wiki/Muon_spin_spectroscopy,owl:Class,muon technique,versus time technique,internal field technique,muon spin resonance technique,,,,,,,,,,,,,
1115,http://purl.org/pan-science/PaNET/PaNET01115,optical spectroscopy technique,,,,,owl:Class,,,,,,,,,('visible photon probe technique' and 'versus energy technique'),,,,,,,,
1116,http://purl.org/pan-science/PaNET/PaNET01116,phase contrast imaging technique,,,,https://en.wikipedia.org/wiki/Phase-contrast_imaging,owl:Class,,,,,,,,,('refraction technique' and 'imaging technique'),,,,,,,,
1117,http://purl.org/pan-science/PaNET/PaNET01117,photon correlation spectroscopy technique,PCS,,,https://en.wikipedia.org/wiki/Dynamic_light_scattering,owl:Class,,,,,,,,,('coherent diffraction technique' and 'versus momentum transfer technique' and 'versus time technique'),,,,,,,,
1118,http://purl.org/pan-science/PaNET/PaNET01118,polarised reflectivity technique,,,,,owl:Class,,,,,,,,,('reflection technique' and 'versus momentum transfer technique' and 'versus polarization technique'),,,,,,,,
1119,http://purl.org/pan-science/PaNET/PaNET01119,spin echo  scattering technique,,,,,owl:Class,,,,,,,,,('neutron technique' and 'spin echo technique'),,,,,,,,
1120,http://purl.org/pan-science/PaNET/PaNET01120,quasielastic neutron spin echo scattering technique,quasi elastic spin echo,quasielastic spin echo,,,owl:Class,,,,,,,,,('spin echo  scattering technique' and 'quasielastic scattering technique'),,,,,,,,
1121,http://purl.org/pan-science/PaNET/PaNET01121,reflectometry technique,reflectivity,,,https://en.wikipedia.org/wiki/Reflectometry,owl:Class,,,,,,,,,('reflection technique' and 'versus momentum transfer technique'),,,,,,,,
1122,http://purl.org/pan-science/PaNET/PaNET01122,resonant diffraction technique,anomalous scattering,anomalous diffraction,,,owl:Class,,,,,,,,,('diffraction technique' and 'atomic core excitation technique' and 'resonant scattering technique'),,,,,,,,
1123,http://purl.org/pan-science/PaNET/PaNET01123,scanning transmission microscopy technique,STM,,,,owl:Class,,,,,,,,,('absorption technique' and 'versus position technique' and 'scanning probe technique' and 'microscopy technique'),,,,,,,,
1124,http://purl.org/pan-science/PaNET/PaNET01124,small angle scattering technique,SAS,small angle diffraction,,https://en.wikipedia.org/wiki/Small-angle_scattering,owl:Class,,,,,,small angle scattering,,,,,,,,,,,
1125,http://purl.org/pan-science/PaNET/PaNET01125,spectroscopy technique,,,,https://en.wikipedia.org/wiki/Spectroscopy,owl:Class,versus energy technique,,,,,,,,,,,,,,,,
1126,http://purl.org/pan-science/PaNET/PaNET01126,spin echo resolved grazing incidence scattering technique,,,,,owl:Class,,,,,,,,,('spin echo  scattering technique' and 'low surface momentum transfer scattering technique'),,,,,,,,
1127,http://purl.org/pan-science/PaNET/PaNET01127,spin echo small angle scattering technique,spin echo SANS,,,,owl:Class,,,,,,,,,('spin echo  scattering technique' and 'small angle scattering technique'),,,,,,,,
1128,http://purl.org/pan-science/PaNET/PaNET01128,surface diffraction technique,,,,,owl:Class,atomic scale diffraction 2D surface or film technique,,,,,,,,,,,,,,,,
1129,http://purl.org/pan-science/PaNET/PaNET01129,tomography technique,,,,https://en.wikipedia.org/wiki/Tomography,owl:Class,obtain 3D spatial map technique,,,,,,,,,,,,,,,,
1130,http://purl.org/pan-science/PaNET/PaNET01130,UV VUV spectroscopy technique,,,,,owl:Class,,,,,,,,,('UV photon probe technique' and 'spectroscopy technique'),,,,,,,,
1131,http://purl.org/pan-science/PaNET/PaNET01131,UV and visible circular dichroism spectroscopy technique,,,,,owl:Class,,,,,,,,,('UV visible photon probe technique' and 'dichroism spectroscopy technique'),,,,,,,,
1132,http://purl.org/pan-science/PaNET/PaNET01132,UV circular dichroism technique,UVCD,,,,owl:Class,,,,,,,,,('circular dichroism technique' and 'UV photon probe technique'),,,,,,,,
1133,http://purl.org/pan-science/PaNET/PaNET01133,ultra small angle scattering technique,USAS,,,,owl:Class,,,,,,,,,('ultra low momentum transfer scattering technique' and 'small angle scattering technique'),,,,,,,,
1134,http://purl.org/pan-science/PaNET/PaNET01134,wide angle scattering technique,,,,,owl:Class,,,,,,wide angle scattering,,,,,,,,,,,
1135,http://purl.org/pan-science/PaNET/PaNET01135,absorption spectroscopy technique,,,,,owl:Class,,,,,,,,,('absorption technique' and 'spectroscopy technique'),,,,,,,,
1136,http://purl.org/pan-science/PaNET/PaNET01136,diffraction imaging technique,topography,,,,owl:Class,,,,,,,,,('diffraction technique' and 'imaging technique'),,,,,,,,
1137,http://purl.org/pan-science/PaNET/PaNET01137,x-ray magnetic circular dichroism technique,XMCD,,,https://en.wikipedia.org/wiki/X-ray_magnetic_circular_dichroism,owl:Class,,,,,,,,,('x-ray probe technique' and 'versus photon circular polarization technique' and 'absorption technique' and 'magnetism technique' and 'dichroism technique'),,,,,,,,
1138,http://purl.org/pan-science/PaNET/PaNET01138,linear dichroism technique,LD,,,https://en.wikipedia.org/wiki/Linear_dichroism,owl:Class,,,,,,,,,('absorption technique' and 'versus photon linear polarization technique' and 'dichroism technique'),,,,,,,,
1139,http://purl.org/pan-science/PaNET/PaNET01139,natural linear dichroism technique,,,,,owl:Class,linear dichroism technique,,,,,,,,,,,,,,,,
1140,http://purl.org/pan-science/PaNET/PaNET01140,x-ray excited optical luminescence technique,XEOL,,,,owl:Class,,,,,,,,,('x-ray probe technique' and 'visible photon emission technique'),,,,,,,,
1141,http://purl.org/pan-science/PaNET/PaNET01141,magnetic circular dichroism technique,MCD,,,https://en.wikipedia.org/wiki/Magnetic_circular_dichroism,owl:Class,,,,,,,,,('photon technique' and 'versus photon circular polarization technique' and 'magnetism technique' and 'absorption technique' and 'dichroism technique'),,,,,,,,
1142,http://purl.org/pan-science/PaNET/PaNET01142,magnetic linear dichroism technique,,,,,owl:Class,,,,,,,,,('photon technique' and 'versus photon linear polarization technique' and 'magnetism technique' and 'absorption technique'),,,,,,,,
1143,http://purl.org/pan-science/PaNET/PaNET01143,magnetochiral dichroism technique,MChD,,,,owl:Class,,,,,,,,,('photon technique' and 'versus polarization technique' and 'chiral determination technique' and 'magnetism technique' and 'dichroism technique'),,,,,,,,
1144,http://purl.org/pan-science/PaNET/PaNET01144,natural circular dichroism technique,NCD,,,,owl:Class,,,,,,,,,('photon technique' and 'versus photon circular polarization technique' and 'chiral determination technique' and 'dichroism technique'),,,,,,,,
1145,http://purl.org/pan-science/PaNET/PaNET01145,electron microscopy technique,EM,,,https://en.wikipedia.org/wiki/Electron_microscope,owl:Class,,,,,,,,,('electron emission technique' and 'microscopy technique'),,,,,,,,
1146,http://purl.org/pan-science/PaNET/PaNET01146,photoemission electron microscopy technique,PEEM,photoelectron emission microscopy,,https://en.wikipedia.org/wiki/Photoemission_electron_microscopy,owl:Class,,,,,,,,,('photon technique' and 'electron microscopy technique'),,,,,,,,
1147,http://purl.org/pan-science/PaNET/PaNET01147,scanning probe imaging technique,,,,,owl:Class,,,,,,,,,('versus position technique' and 'scanning probe technique' and 'imaging technique'),,,,,,,,
1148,http://purl.org/pan-science/PaNET/PaNET01148,scanning probe microscopy technique,scanning microscopy,,,,owl:Class,,,,,,,,,('scanning probe imaging technique' and 'microscopy technique'),,,,,,,,
1149,http://purl.org/pan-science/PaNET/PaNET01149,x-ray reflectivity technique,XRR,x-ray reflectometry,,https://en.wikipedia.org/wiki/X-ray_reflectivity,owl:Class,,,,,,,,,('x-ray probe technique' and 'reflection technique' and 'versus momentum transfer technique'),,,,,,,,
1150,http://purl.org/pan-science/PaNET/PaNET01150,grating interferometry technique,,,,,owl:Class,interferometry technique,refraction technique,propagation technique,,,,,,,,,,,,,,
1151,http://purl.org/pan-science/PaNET/PaNET01151,absorption tomography technique,,,,,owl:Class,,,,,,,,,('tomography technique' and 'absorption technique'),,,,,,,,
1152,http://purl.org/pan-science/PaNET/PaNET01152,propagation phase contrast tomography technique,,,,,owl:Class,,,,,,,,,('propagation technique' and 'tomography technique' and 'refraction technique'),,,,,,,,
1153,http://purl.org/pan-science/PaNET/PaNET01153,ultrafast tomography technique,,,,,owl:Class,,,,,,,,,('tomography technique' and 'versus time ultrafast technique'),,,,,,,,
1154,http://purl.org/pan-science/PaNET/PaNET01154,nanotomography technique,,,,https://en.wikipedia.org/wiki/Nanotomography,owl:Class,,,,,,,,,('tomography technique' and 'obtain ultrahigh resolution spatial map technique'),,,,,,,,
1155,http://purl.org/pan-science/PaNET/PaNET01155,absorption and phase contrast nanotomography technique,,,,,owl:Class,,,,,,,,,('nanotomography technique' and 'absorption technique' and 'refraction technique'),,,,,,,,
1156,http://purl.org/pan-science/PaNET/PaNET01156,x-ray spectroscopy technique,,,,https://en.wikipedia.org/wiki/X-ray_spectroscopy,owl:Class,,,,,,,,,('spectroscopy technique' and 'x-ray probe technique'),,,,,,,,
1157,http://purl.org/pan-science/PaNET/PaNET01157,in-situ diffraction technique,,,,,owl:Class,(definedByProcess some 'diffraction'),,,,,,,,,,,,,,,,
1158,http://purl.org/pan-science/PaNET/PaNET01158,in-situ surface diffraction technique,,,,,owl:Class,,,,,,,,,('surface diffraction technique' and 'in-situ diffraction technique'),,,,,,,,
1159,http://purl.org/pan-science/PaNET/PaNET01159,energy dispersive diffraction technique,EDD,,,,owl:Class,powder diffraction technique,dispersive technique,,,,,,,,,,,,,,,
1160,http://purl.org/pan-science/PaNET/PaNET01160,energy dispersive x-ray diffraction technique,EDXRD,,,https://en.wikipedia.org/wiki/Energy-dispersive_X-ray_diffraction,owl:Class,,,,,,,,,('energy dispersive diffraction technique' and 'x-ray probe technique'),,,,,,,,
1161,http://purl.org/pan-science/PaNET/PaNET01161,grazing incidence x-ray diffraction technique,GIXD,,,,owl:Class,,,,,,,,,('grazing incidence diffraction technique' and 'x-ray probe technique'),,,,,,,,
1162,http://purl.org/pan-science/PaNET/PaNET01162,grazing incidence small angle x-ray scattering technique,GISAXS,,,https://en.wikipedia.org/wiki/Grazing-incidence_small-angle_scattering,owl:Class,,,,,,,,,('grazing incidence small angle scattering technique' and 'small angle x-ray scattering technique'),,,,,,,,
1163,http://purl.org/pan-science/PaNET/PaNET01163,high pressure single crystal diffraction technique,Diffraction,,,,owl:Class,single crystal diffraction technique,versus sample pressure technique,,,,,,,,,,,,,,,
1164,http://purl.org/pan-science/PaNET/PaNET01164,macromolecular crystallography technique,MX,protein crystallography,,,owl:Class,single crystal diffraction technique,crystallography technique,,,,,,,,,,,,,,,
1165,http://purl.org/pan-science/PaNET/PaNET01165,multi wavelength anomalous diffraction technique,MAD,multi wavelength anomalous dispersion,,https://en.wikipedia.org/wiki/Multi-wavelength_anomalous_dispersion,owl:Class,,,,,,,,,('macromolecular crystallography technique' and 'versus energy technique' and 'atomic core excitation technique' and 'x-ray probe technique'),,,,,,,,
1166,http://purl.org/pan-science/PaNET/PaNET01166,photo crystallography technique,,,,,owl:Class,,,,,,,,,('single crystal diffraction technique' and 'photo excitation technique' and 'crystallography technique'),,,,,,,,
1167,http://purl.org/pan-science/PaNET/PaNET01167,photoelectron diffraction technique,PhD,,,,owl:Class,,,,,,,,,('electron emission technique' and 'coherent emission technique' and 'photon technique'),,,,,,,,
1168,http://purl.org/pan-science/PaNET/PaNET01168,serial femtosecond crystallography technique,SFX,,,https://en.wikipedia.org/wiki/Serial_femtosecond_crystallography,owl:Class,,,,,,,,,('x-ray single crystal diffraction technique' and 'ultrafast probe technique' and 'crystallography technique' and 'single shot technique'),,,,,,,,
1169,http://purl.org/pan-science/PaNET/PaNET01169,serial synchrotron crystallography technique,SSX,,,,owl:Class,,,,,,,,,('x-ray single crystal diffraction technique' and 'pulsed probe technique' and 'crystallography technique' and 'single shot technique'),,,,,,,,
1170,http://purl.org/pan-science/PaNET/PaNET01170,single wavelength anomalous diffraction technique,SAD,single wavelength anomalous dispersion,,https://en.wikipedia.org/wiki/Single-wavelength_anomalous_dispersion,owl:Class,,,,,,,,,('macromolecular crystallography technique' and 'atomic core excitation technique'),,,,,,,,
1171,http://purl.org/pan-science/PaNET/PaNET01171,small molecule diffraction technique,small molecule crystallography,chemical crystallography,,,owl:Class,single crystal diffraction technique,,,,,,,,,,,,,,,,
1172,http://purl.org/pan-science/PaNET/PaNET01172,surface x-ray diffraction technique,,,,,owl:Class,,,,,,,,,('surface diffraction technique' and 'x-ray probe technique'),,,,,,,,
1173,http://purl.org/pan-science/PaNET/PaNET01173,x-ray standing wave technique,XSW,,,https://en.wikipedia.org/wiki/X-ray_standing_waves,owl:Class,dynamical diffraction technique,absorption technique,x-ray probe technique,atomic structure technique,,,,,,,,,,,,,
1174,http://purl.org/pan-science/PaNET/PaNET01174,coherent diffraction imaging technique,CDI,coherent diffractive imaging,,https://en.wikipedia.org/wiki/Coherent_diffraction_imaging,owl:Class,,,,,,,,,('coherent diffraction technique' and 'imaging technique'),,,,,,,,
1175,http://purl.org/pan-science/PaNET/PaNET01175,infrared nanospectroscopy imaging technique,nano infrared spectroscopy,,,,owl:Class,,,,,,,,,('IR photon probe technique' and 'spectroscopy technique' and 'obtain ultrahigh resolution spatial map technique'),,,,,,,,
1176,http://purl.org/pan-science/PaNET/PaNET01176,UV circular dichroism imaging technique,,,,,owl:Class,,,,,,,,,('natural circular dichroism technique' and 'UV photon probe technique' and 'spatial map technique'),,,,,,,,
1177,http://purl.org/pan-science/PaNET/PaNET01177,x-ray fluorescence technique,XRF,,,https://en.wikipedia.org/wiki/X-ray_fluorescence,owl:Class,,,,,,x-ray fluorescence,,,,,,,,,,,
1178,http://purl.org/pan-science/PaNET/PaNET01178,infrared microscopy technique,IR microscopy,,,https://en.wikipedia.org/wiki/Microscopy#Infrared_microscopy,owl:Class,,,,,,,,,('IR photon probe technique' and 'microscopy technique'),,,,,,,,
1179,http://purl.org/pan-science/PaNET/PaNET01179,optical microscopy technique,,,,https://en.wikipedia.org/wiki/Optical_microscope,owl:Class,,,,,,,,,('visible photon probe technique' and 'microscopy technique'),,,,,,,,
1180,http://purl.org/pan-science/PaNET/PaNET01180,x-ray microscopy technique,,,,https://en.wikipedia.org/wiki/X-ray_microscope,owl:Class,,,,,,,,,('x-ray probe technique' and 'microscopy technique'),,,,,,,,
1181,http://purl.org/pan-science/PaNET/PaNET01181,pair distribution function technique,PDF,,,https://en.wikipedia.org/wiki/Pair_distribution_function,owl:Class,,,,,,,,,('diffraction technique' and 'obtain local coordination technique'),,,,,,,,
1182,http://purl.org/pan-science/PaNET/PaNET01182,inelastic x-ray scattering technique,IXS,,,https://en.wikipedia.org/wiki/X-ray_scattering techniques#Inelastic_X-ray_scattering_(IXS),owl:Class,,,,,,,,,('inelastic scattering technique' and 'x-ray probe technique'),,,,,,,,
1183,http://purl.org/pan-science/PaNET/PaNET01183,resonant inelastic x-ray scattering technique,RIXS,,,https://en.wikipedia.org/wiki/Resonant_inelastic_X-ray_scattering,owl:Class,,,,,,,,,('inelastic x-ray scattering technique' and 'atomic core excitation technique' and 'resonant scattering technique'),,,,,,,,
1184,http://purl.org/pan-science/PaNET/PaNET01184,x-ray scattering technique,,,,,owl:Class,,,,,,,,,('scattering technique' and 'x-ray probe technique'),,,,,,,,
1185,http://purl.org/pan-science/PaNET/PaNET01185,light scattering technique,,,,,owl:Class,,,,,,,,,('scattering technique' and 'visible photon probe technique'),,,,,,,,
1186,http://purl.org/pan-science/PaNET/PaNET01186,resonant x-ray scattering technique,RXS,,,,owl:Class,,,,,,,,,('x-ray scattering technique' and 'atomic core excitation technique' and 'resonant scattering technique'),,,,,,,,
1187,http://purl.org/pan-science/PaNET/PaNET01187,resonant soft x-ray scattering technique,RSXS,,,,owl:Class,,,,,,,,,('soft x-ray probe technique' and 'resonant x-ray scattering technique' and 'resonant scattering technique'),,,,,,,,
1188,http://purl.org/pan-science/PaNET/PaNET01188,small angle x-ray scattering technique,SAXS,,,https://en.wikipedia.org/wiki/Small-angle_X-ray_scattering,owl:Class,,,,,,,,,('small angle scattering technique' and 'x-ray probe technique'),,,,,,,,
1189,http://purl.org/pan-science/PaNET/PaNET01189,small angle neutron scattering technique,SANS,,,https://en.wikipedia.org/wiki/Small-angle_neutron_scattering,owl:Class,,,,,,,,,('small angle scattering technique' and 'neutron diffraction technique'),,,,,,,,
1190,http://purl.org/pan-science/PaNET/PaNET01190,total scattering technique,,,,,owl:Class,,,,,,,,,('atomic scale diffraction technique' and 'pair distribution function technique'),,,,,,,,
1191,http://purl.org/pan-science/PaNET/PaNET01191,wide angle x-ray scattering technique,WAXS,,,,owl:Class,,,,,,,,,('high momentum transfer scattering technique' and 'x-ray probe technique' and 'atomic scale diffraction technique'),,,,,,,,
1192,http://purl.org/pan-science/PaNET/PaNET01192,circular dichroism technique,CD,,,https://en.wikipedia.org/wiki/Circular_dichroism,owl:Class,,,,,,,,,('versus photon circular polarization technique' and 'dichroism technique'),,,,,,,,
1193,http://purl.org/pan-science/PaNET/PaNET01193,energy dispersive x-ray spectroscopy technique,EDX,,,https://en.wikipedia.org/wiki/Energy-dispersive_X-ray_spectroscopy,owl:Class,,,,,,,,,('dispersive technique' and 'x-ray probe technique' and 'spectroscopy technique' and 'atomic core excitation technique'),,,,,,,,
1194,http://purl.org/pan-science/PaNET/PaNET01194,microfocus spectroscopy technique,,,,,owl:Class,,,,,,,,,('microfocussed probe technique' and 'spectroscopy technique'),,,,,,,,
1195,http://purl.org/pan-science/PaNET/PaNET01195,raman spectroscopy technique,,,,https://en.wikipedia.org/wiki/Raman_spectroscopy,owl:Class,inelastic scattering technique,photon technique,,,,,,,,,,,,,,,
1196,http://purl.org/pan-science/PaNET/PaNET01196,x-ray absorption spectroscopy technique,XAS,,,https://en.wikipedia.org/wiki/X-ray_absorption_spectroscopy,owl:Class,,,,,,,,,('absorption spectroscopy technique' and 'x-ray absorption technique' and 'atomic core excitation technique'),,,,,,,,
1197,http://purl.org/pan-science/PaNET/PaNET01197,x-ray absorption fine structure technique,XAFS,,,https://en.wikipedia.org/wiki/X-ray_absorption_fine_structure,owl:Class,x-ray absorption spectroscopy technique,,,,,,,,,,,,,,,,
1198,http://purl.org/pan-science/PaNET/PaNET01198,extended x-ray absorption fine structure technique,EXAFS,,,https://en.wikipedia.org/wiki/Extended_X-ray_absorption_fine_structure,owl:Class,,,,,,,,,('x-ray absorption fine structure technique' and 'obtain local coordination technique'),,,,,,,,
1199,http://purl.org/pan-science/PaNET/PaNET01199,x-ray absorption near edge structure technique,XANES,NEXAFS,,https://en.wikipedia.org/wiki/X-ray_absorption_near_edge_structure,owl:Class,,,,,,,,,('x-ray absorption fine structure technique' and 'electronic ground state properties technique'),,,,,,,,
1200,http://purl.org/pan-science/PaNET/PaNET01200,x-ray emission spectroscopy technique,XES,,,https://en.wikipedia.org/wiki/X-ray_emission_spectroscopy,owl:Class,,,,,,,,,('inelastic scattering technique' and 'x-ray probe technique' and 'photon emission technique' and 'spectroscopy technique'),,,,,,,,
1201,http://purl.org/pan-science/PaNET/PaNET01201,electron spectroscopy technique,,,,https://en.wikipedia.org/wiki/Electron_spectroscopy,owl:Class,,,,,,,,,('electron emission technique' and 'spectroscopy technique'),,,,,,,,
1202,http://purl.org/pan-science/PaNET/PaNET01202,photoelectron spectroscopy technique,PES,,,https://en.wikipedia.org/wiki/Photoemission_spectroscopy,owl:Class,,,,,,,,,('electron spectroscopy technique' and 'photon technique' and 'obtain electronic density of occupied states technique'),,,,,,,,
1203,http://purl.org/pan-science/PaNET/PaNET01203,spin resolved photoelectron spectroscopy technique,,,,,owl:Class,,,,,,,,,('photoelectron spectroscopy technique' and 'versus emitted polarization technique'),,,,,,,,
1204,http://purl.org/pan-science/PaNET/PaNET01204,x-ray photoelectron spectroscopy technique,XPS,,,https://en.wikipedia.org/wiki/X-ray_photoelectron_spectroscopy,owl:Class,,,,,,,,,('x-ray probe technique' and 'photoelectron spectroscopy technique'),,,,,,,,
1205,http://purl.org/pan-science/PaNET/PaNET01205,x-ray photon correlation spectroscopy technique,XPCS,,,https://en.wikipedia.org/wiki/X-ray_Photon_Correlation_Spectroscopy,owl:Class,,,,,,,,,('x-ray probe technique' and 'photon correlation spectroscopy technique'),,,,,,,,
1206,http://purl.org/pan-science/PaNET/PaNET01206,microtomography technique,,,,,owl:Class,,,,,,,,,('tomography technique' and 'obtain high resolution spatial map technique'),,,,,,,,
1207,http://purl.org/pan-science/PaNET/PaNET01207,x-ray tomography technique,CT scan,,,https://en.wikipedia.org/wiki/CT_scan,owl:Class,,,,,,,,,('tomography technique' and 'x-ray probe technique'),,,,,,,,
1208,http://purl.org/pan-science/PaNET/PaNET01208,x-ray microtomography technique,,,,https://en.wikipedia.org/wiki/Talk:X-ray_microtomography,owl:Class,,,,,,,,,('microtomography technique' and 'x-ray probe technique'),,,,,,,,
1209,http://purl.org/pan-science/PaNET/PaNET01209,absorption microtomography technique,Absorption-based tomographic microscopy,,,,owl:Class,,,,,,,,,('microtomography technique' and 'absorption technique'),,,,,,,,
1210,http://purl.org/pan-science/PaNET/PaNET01210,propagation phase contrast microtomography technique,,,,,owl:Class,,,,,,,,,('propagation phase contrast tomography technique' and 'microscopy technique'),,,,,,,,
1211,http://purl.org/pan-science/PaNET/PaNET01211,ultrafast microtomography technique,Ultra-fast tomographic microscopy,,,,owl:Class,,,,,,,,,('ultrafast tomography technique' and 'obtain high resolution spatial map technique'),,,,,,,,
1212,http://purl.org/pan-science/PaNET/PaNET01212,ptychography technique,,,,https://en.wikipedia.org/wiki/Ptychography,owl:Class,coherent diffraction imaging technique,scanning probe technique,,,,,,,,,,,,,,,
1213,http://purl.org/pan-science/PaNET/PaNET01213,ptychographic nanotomography technique,,,,,owl:Class,,,,,,,,,('ptychography technique' and 'nanotomography technique'),,,,,,,,
1214,http://purl.org/pan-science/PaNET/PaNET01214,instrumentation testing technique,,,,,owl:Class,,,,,,,,instrumentation testing,,,,,,,,,
1215,http://purl.org/pan-science/PaNET/PaNET01215,optics characterization technique,,,,,owl:Class,,,,,,,,optics characterization,,,,,,,,,
1216,http://purl.org/pan-science/PaNET/PaNET01216,x-ray diffraction technique,XRD,,,,owl:Class,,,,,,,,,('diffraction technique' and 'x-ray probe technique'),,,,,,,,
1217,http://purl.org/pan-science/PaNET/PaNET01217,neutron diffraction technique,,,,https://en.wikipedia.org/wiki/Neutron_diffraction,owl:Class,,,,,,,,,('diffraction technique' and 'neutron technique'),,,,,,,,
1218,http://purl.org/pan-science/PaNET/PaNET01218,ambient pressure x-ray photoelectron spectroscopy technique,,,,,owl:Class,x-ray photoelectron spectroscopy technique,,,,,,,,,,,,,,,,
1219,http://purl.org/pan-science/PaNET/PaNET01219,scanning transmission x-ray microscopy technique,STXM,,,https://en.wikipedia.org/wiki/Scanning_transmission_X-ray_microscopy,owl:Class,,,,,,,,,('scanning transmission microscopy technique' and 'x-ray probe technique'),,,,,,,,
1220,http://purl.org/pan-science/PaNET/PaNET01220,total electron yield technique,TEY,,,,owl:Class,(definedByProcess some 'electron emission'),,,,,,,,,,,,,,,,
1221,http://purl.org/pan-science/PaNET/PaNET01221,XMCD total electron yield technique,XMCD TEY,,,,owl:Class,,,,,,,,,('x-ray magnetic circular dichroism technique' and 'total electron yield technique'),,,,,,,,
1222,http://purl.org/pan-science/PaNET/PaNET01222,spin and angle resolved photoemission spectroscopy technique,,,,,owl:Class,,,,,,,,,('angle resolved photoemission spectroscopy technique' and 'versus emitted polarization technique'),,,,,,,,
1223,http://purl.org/pan-science/PaNET/PaNET01223,lithography technique,,,,https://en.wikipedia.org/wiki/Lithography,owl:Class,,,,,,,,lithography,,,,,,,,,
1224,http://purl.org/pan-science/PaNET/PaNET01224,x-ray lithography technique,,,,https://en.wikipedia.org/wiki/X-ray_lithography,owl:Class,,,,,,,,,('x-ray probe technique' and 'lithography technique'),,,,,,,,
1225,http://purl.org/pan-science/PaNET/PaNET01225,EUV lithography technique,,,,,owl:Class,,,,,,,,,('EUV photon probe technique' and 'lithography technique'),,,,,,,,
1226,http://purl.org/pan-science/PaNET/PaNET01226,x-ray interference lithography technique,,,,,owl:Class,(definedByProcess some 'interferometry'),,,,,,,,,,,,,,,,
1227,http://purl.org/pan-science/PaNET/PaNET01227,x-ray absorption technique,,,,,owl:Class,,,,,,,,,('absorption technique' and 'x-ray probe technique'),,,,,,,,
1228,http://purl.org/pan-science/PaNET/PaNET01228,nonresonant diffraction technique,,,,,owl:Class,,,,,,nonresonant diffraction,,,,,,,,,,,
1229,http://purl.org/pan-science/PaNET/PaNET01229,nonlinear x-ray spectroscopy technique,,,,,owl:Class,,,,,,,,,('nonlinear technique' and 'x-ray spectroscopy technique'),,,,,,,,
1230,http://purl.org/pan-science/PaNET/PaNET01230,single-shot imaging technique,,,,,owl:Class,,,,,,,,,('single shot technique' and 'imaging technique'),,,,,,,,
1231,http://purl.org/pan-science/PaNET/PaNET01231,nanoimprint lithography technique,,,,https://en.wikipedia.org/wiki/Nanoimprint_lithography,owl:Class,,,,,,,,nanoimprint lithography,,,,,,,,,
1232,http://purl.org/pan-science/PaNET/PaNET01232,grayscale lithography technique,,,,,owl:Class,,,,,,,,grayscale lithography,,,,,,,,,
1233,http://purl.org/pan-science/PaNET/PaNET01233,polymer micro and nanografting technique,,,,,owl:Class,,,,,,,,polymer micro and nanografting,,,,,,,,,
1234,http://purl.org/pan-science/PaNET/PaNET01234,high resolution neutron powder diffraction technique,,,,,owl:Class,,,,,,,,,('neutron powder diffraction technique' and 'high momentum transfer resolution scattering technique'),,,,,,,,
1235,http://purl.org/pan-science/PaNET/PaNET01235,high resolution thermal neutron powder diffraction technique,,,,,owl:Class,,,,,,,,,('high resolution neutron powder diffraction technique' and 'thermal neutron probe technique'),,,,,,,,
1236,http://purl.org/pan-science/PaNET/PaNET01236,neutron single crystal diffraction technique,,,,,owl:Class,,,,,,,,,('single crystal diffraction technique' and 'neutron diffraction technique'),,,,,,,,
1237,http://purl.org/pan-science/PaNET/PaNET01237,thermal neutron single crystal diffraction technique,,,,,owl:Class,,,,,,,,,('neutron single crystal diffraction technique' and 'thermal neutron probe technique'),,,,,,,,
1238,http://purl.org/pan-science/PaNET/PaNET01238,pulse overlap diffraction technique,,,,,owl:Class,,,,,,,,,('x-ray photon correlation spectroscopy technique' and 'ultrafast probe technique'),,,,,,,,
1239,http://purl.org/pan-science/PaNET/PaNET01239,neutron reflectometry technique,neutron reflectivity,,,https://en.wikipedia.org/wiki/Neutron_reflectometry,owl:Class,,,,,,,,,('reflectometry technique' and 'neutron technique'),,,,,,,,
1240,http://purl.org/pan-science/PaNET/PaNET01240,ultra small angle neutron scattering technique,,,,,owl:Class,,,,,,,,,('ultra small angle scattering technique' and 'neutron technique'),,,,,,,,
1241,http://purl.org/pan-science/PaNET/PaNET01241,ultra small angle x-ray scattering technique,USAXS,,,,owl:Class,,,,,,,,,('ultra small angle scattering technique' and 'x-ray probe technique'),,,,,,,,
1242,http://purl.org/pan-science/PaNET/PaNET01242,neutron scattering technique,,,,https://en.wikipedia.org/wiki/Neutron_scattering,owl:Class,,,,,,,,,('scattering technique' and 'neutron technique'),,,,,,,,
1243,http://purl.org/pan-science/PaNET/PaNET01243,polarized neutron reflectometry technique,polarized neutron reflectivity,,,,owl:Class,,,,,,,,,('neutron reflectometry technique' and 'versus polarization technique'),,,,,,,,
1244,http://purl.org/pan-science/PaNET/PaNET01244,time-of-flight spectrometry technique,TOF spectrometry,TOF spectroscopy,,,owl:Class,,,,,,,,,('spectroscopy technique' and 'neutron time of flight technique'),,,,,,,,
1245,http://purl.org/pan-science/PaNET/PaNET01245,inelastic neutron spectroscopy technique,inelastic neutron scattering spectroscopy,inelastic neutron scattering,,Neutron spectroscopy - Wikipedia,owl:Class,,,,,,,,,('inelastic scattering technique' and 'neutron technique' and 'spectroscopy technique'),,,,,,,,
1246,http://purl.org/pan-science/PaNET/PaNET01246,cold neutron spectroscopy technique,,,,,owl:Class,,,,,,,,,('inelastic neutron spectroscopy technique' and 'cold neutron probe technique'),,,,,,,,
1247,http://purl.org/pan-science/PaNET/PaNET01247,thermal neutron spectroscopy technique,,,,,owl:Class,,,,,,,,,('inelastic neutron spectroscopy technique' and 'thermal neutron probe technique'),,,,,,,,
1248,http://purl.org/pan-science/PaNET/PaNET01248,neutron transmission radiography technique,,,,,owl:Class,,,,,,,,,('neutron technique' and 'absorption technique' and 'imaging technique'),,,,,,,,
1249,http://purl.org/pan-science/PaNET/PaNET01249,cold neutron imaging technique,,,,,owl:Class,,,,,,,,,('imaging technique' and 'cold neutron probe technique'),,,,,,,,
1250,http://purl.org/pan-science/PaNET/PaNET01250,high-resolution neutron imaging  technique,,,,,owl:Class,,,,,,,,,('imaging technique' and 'obtain high resolution spatial map technique' and 'neutron technique'),,,,,,,,
1251,http://purl.org/pan-science/PaNET/PaNET01251,THz near field microscopy technique,,,,,owl:Class,,,,,,,,,('THz photon probe technique' and 'microscopy technique' and 'scanning probe technique'),,,,,,,,
1252,http://purl.org/pan-science/PaNET/PaNET01252,magnetic scattering technique,,,,,owl:Class,scattering technique,magnetism technique,,,,,,,,,,,,,,,
1253,http://purl.org/pan-science/PaNET/PaNET01253,magnetic diffraction technique,,,,,owl:Class,,,,,,,,,('diffraction technique' and 'magnetism technique'),,,,,,,,
1254,http://purl.org/pan-science/PaNET/PaNET01254,microfocus x-ray fluorescence technique,,,,,owl:Class,,,,,,,,,('microfocussed probe technique' and 'x-ray emission technique'),,,,,,,,
1255,http://purl.org/pan-science/PaNET/PaNET01255,ellipsometry technique,,,,https://en.wikipedia.org/wiki/Ellipsometry,owl:Class,,,,,,,,,('versus emitted polarization technique' and 'reflection technique' and 'photon technique'),,,,,,,,
1256,http://purl.org/pan-science/PaNET/PaNET01256,polarimetry technique,,,,,owl:Class,(definedByDependence some 'emitted polarization'),,,,,,,,,,,,,,,,
1257,http://purl.org/pan-science/PaNET/PaNET01257,UV photoelectron emission technique,,,,,owl:Class,,,,,,,,,('UV photon probe technique' and 'photoelectron emission technique'),,,,,,,,
1258,http://purl.org/pan-science/PaNET/PaNET01258,x-ray photoelectron emission technique,,,,,owl:Class,,,,,,,,,('x-ray probe technique' and 'photoelectron emission technique'),,,,,,,,
1259,http://purl.org/pan-science/PaNET/PaNET01259,x-ray magnetic linear dichroism technique,XMLD,,,,owl:Class,,,,,,,,,('x-ray probe technique' and 'magnetic linear dichroism technique'),,,,,,,,
1260,http://purl.org/pan-science/PaNET/PaNET01260,resonant elastic x-ray scattering technique,REXS,,,,owl:Class,,,,,,,,,('resonant x-ray scattering technique' and 'elastic scattering technique' and 'resonant scattering technique'),,,,,,,,
1261,http://purl.org/pan-science/PaNET/PaNET01261,x-ray refraction imaging technique,x-ray refraction radiography,,,,owl:Class,,,,,,,,,('x-ray probe technique' and 'refraction technique' and 'imaging technique'),,,,,,,,
1262,http://purl.org/pan-science/PaNET/PaNET01262,x-ray refraction tomography technique,,,,,owl:Class,,,,,,,,,('x-ray probe technique' and 'propagation phase contrast tomography technique'),,,,,,,,
1263,http://purl.org/pan-science/PaNET/PaNET01263,time dependent scattering technique,time resolved scattering,,,,owl:Class,,,,,,,,,('time dependent study technique' and 'scattering technique'),,,,,,,,
1264,http://purl.org/pan-science/PaNET/PaNET01264,time dependent diffraction technique,time resolved diffraction,,,,owl:Class,,,,,,,,,('time dependent scattering technique' and 'diffraction technique'),,,,,,,,
1265,http://purl.org/pan-science/PaNET/PaNET01265,time dependent absorption technique,time resolved absorption,,,,owl:Class,,,,,,,,,('time dependent study technique' and 'absorption technique'),,,,,,,,
1266,http://purl.org/pan-science/PaNET/PaNET01266,x-ray holography technique,,,,,owl:Class,,,,,,,,,('holography technique' and 'x-ray probe technique'),,,,,,,,
1267,http://purl.org/pan-science/PaNET/PaNET01267,ion imaging technique,,,,,owl:Class,,,,,,,,,('ion emission technique' and 'photon technique' and 'versus emission momentum technique'),,,,,,,,
1268,http://purl.org/pan-science/PaNET/PaNET01268,mass spectrometry technique,,,,https://en.wikipedia.org/wiki/Mass_spectrometry,owl:Class,(definedByDependence some 'emission mass'),,,,,,,,,,,,,,,,
1269,http://purl.org/pan-science/PaNET/PaNET01269,photoelectron emission technique,,,,https://en.wikipedia.org/wiki/Photoelectric_effect,owl:Class,,,,,,,,,('photon technique' and 'electron emission technique'),,,,,,,,
1270,http://purl.org/pan-science/PaNET/PaNET01270,nuclear resonant scattering technique,,,,,owl:Class,,,,,,,,,('nuclear resonance technique' and 'resonant scattering technique'),,,,,,,,
1271,http://purl.org/pan-science/PaNET/PaNET01271,microfocus x-ray scattering technique,,,,,owl:Class,,,,,,,,,('x-ray scattering technique' and 'microfocussed probe technique'),,,,,,,,
1272,http://purl.org/pan-science/PaNET/PaNET01272,nanofocus x-ray scattering technique,,,,,owl:Class,,,,,,,,,('microfocus x-ray scattering technique' and 'nanofocussed probe technique'),,,,,,,,
1273,http://purl.org/pan-science/PaNET/PaNET01273,small angle inelastic scattering technique,,,,,owl:Class,,,,,,,,,('inelastic scattering technique' and 'small angle scattering technique'),,,,,,,,
1274,http://purl.org/pan-science/PaNET/PaNET01274,anomalous small angle x-ray scattering technique,ASAXS,,,,owl:Class,,,,,,,,,('resonant diffraction technique' and 'small angle scattering technique' and 'x-ray probe technique'),,,,,,,,
1275,http://purl.org/pan-science/PaNET/PaNET01275,anomalous solution x-ray scattering technique,ASAX,,,,owl:Class,anomalous small angle x-ray scattering technique,,,,,,,,,,,,,,,,
1276,http://purl.org/pan-science/PaNET/PaNET01276,grazing incidence small angle neutron scattering technique,GISANS,,,https://en.wikipedia.org/wiki/Grazing-incidence_small-angle_scattering,owl:Class,,,,,,,,,('grazing incidence small angle scattering technique' and 'small angle neutron scattering technique'),,,,,,,,
1277,http://purl.org/pan-science/PaNET/PaNET01277,time of flight small angle neutron scattering technique,,,,,owl:Class,,,,,,,,,('small angle neutron scattering technique' and 'time of flight technique'),,,,,,,,
1278,http://purl.org/pan-science/PaNET/PaNET01278,very small angle neutron scattering technique,VSANS,,,,owl:Class,,,,,,,,,('small angle neutron scattering technique' and 'ultra small angle scattering technique'),,,,,,,,
1279,http://purl.org/pan-science/PaNET/PaNET01279,diffuse small angle scattering technique,,,,,owl:Class,,,,,,,,,('small angle scattering technique' and 'diffuse scattering technique'),,,,,,,,
1280,http://purl.org/pan-science/PaNET/PaNET01280,diffuse small angle x-ray scattering technique,,,,,owl:Class,,,,,,,,,('diffuse small angle scattering technique' and 'x-ray probe technique'),,,,,,,,
1281,http://purl.org/pan-science/PaNET/PaNET01281,inelastic x-ray small angle scattering technique,,,,,owl:Class,,,,,,,,,('small angle x-ray scattering technique' and 'inelastic x-ray scattering technique' and 'small angle inelastic scattering technique'),,,,,,,,
1282,http://purl.org/pan-science/PaNET/PaNET01282,soft x-ray small angle scattering technique,,,,,owl:Class,,,,,,,,,('small angle x-ray scattering technique' and 'soft x-ray probe technique'),,,,,,,,
1283,http://purl.org/pan-science/PaNET/PaNET01283,soft x-ray diffraction technique,,,,,owl:Class,,,,,,,,,('soft x-ray probe technique' and 'diffraction technique'),,,,,,,,
1284,http://purl.org/pan-science/PaNET/PaNET01284,x-ray photoelectron diffraction technique,,,,,owl:Class,,,,,x-ray,,,,photoelectron diffraction technique,,,,,,,,
1285,http://purl.org/pan-science/PaNET/PaNET01285,x-ray imaging technique,,,,https://en.wikipedia.org/wiki/Radiography,owl:Class,,,,,,,,,('imaging technique' and 'x-ray probe technique'),,,,,,,,
1286,http://purl.org/pan-science/PaNET/PaNET01286,micro small angle x-ray scattering tomography technique,micro SAXS tomography,,,,owl:Class,grazing incidence small angle x-ray scattering technique,microtomography technique,,,,,,,,,,,,,,,
1287,http://purl.org/pan-science/PaNET/PaNET01287,micro grazing incidence small angle x-ray scattering tomography technique,micro GISAXS tomography,,,,owl:Class,micro small angle x-ray scattering tomography technique,,,,,,,,,,,,,,,,
1288,http://purl.org/pan-science/PaNET/PaNET01288,scanning x-ray fluorescence technique,,,,,owl:Class,,,,,,,,,('x-ray fluorescence technique' and 'scanning probe imaging technique'),,,,,,,,
1289,http://purl.org/pan-science/PaNET/PaNET01289,soft x-ray imaging technique,,,,,owl:Class,,,,,soft x-ray,,,,imaging technique,,,,,,,,
1290,http://purl.org/pan-science/PaNET/PaNET01290,x-ray diffraction imaging technique,,,,,owl:Class,,,,,,,,,('diffraction imaging technique' and 'x-ray probe technique'),,,,,,,,
1291,http://purl.org/pan-science/PaNET/PaNET01291,scanning angle resolved photoemission spectromicroscopy technique,,,,,owl:Class,,,,,,,,,('angle resolved photoemission spectroscopy technique' and 'scanning probe microscopy technique'),,,,,,,,
1292,http://purl.org/pan-science/PaNET/PaNET01292,nano angle resolved photoemission spectroscopy technique,nano ARPES,,,,owl:Class,,,,,,,,,('scanning angle resolved photoemission spectromicroscopy technique' and 'nanofocussed probe technique'),,,,,,,,
1293,http://purl.org/pan-science/PaNET/PaNET01293,scanning photoelectron microscopy technique,,,,,owl:Class,,,,,,,,,('photoemission electron microscopy technique' and 'scanning probe technique'),,,,,,,,
1294,http://purl.org/pan-science/PaNET/PaNET01294,x-ray photoemission electron microscopy technique,,,,,owl:Class,,,,,,,,,('photoemission electron microscopy technique' and 'x-ray probe technique'),,,,,,,,
1295,http://purl.org/pan-science/PaNET/PaNET01295,x-ray scanning microscopy technique,scanning x-ray microscopy,,,,owl:Class,,,,,,,,,('x-ray microscopy technique' and 'scanning probe technique'),,,,,,,,
1296,http://purl.org/pan-science/PaNET/PaNET01296,high resolution core-level photoemission spectroscopy technique,,,,,owl:Class,,,,,,,,,('high resolution photoelectron spectroscopy technique' and 'atomic core excitation technique'),,,,,,,,
1297,http://purl.org/pan-science/PaNET/PaNET01297,high resolution x-ray photoelectron spectroscopy technique,HR-XPS,,,,owl:Class,,,,,,,,,('x-ray photoelectron spectroscopy technique' and 'high resolution photoelectron spectroscopy technique'),,,,,,,,
1298,http://purl.org/pan-science/PaNET/PaNET01298,elastic neutron scattering spectroscopy technique,resolution elastic neutron scattering,RENS,,,owl:Class,,,,,,,,,('elastic scattering technique' and 'neutron technique' and 'spectroscopy technique' and 'dynamics technique'),,,,,,,,
1299,http://purl.org/pan-science/PaNET/PaNET01299,high resolution inelastic neutron scattering technique,,,,,owl:Class,,,,,,,,,('inelastic neutron spectroscopy technique' and 'high energy resolution emission technique'),,,,,,,,
1300,http://purl.org/pan-science/PaNET/PaNET01300,x-ray linear dichroism technique,,,,,owl:Class,,,,,,,,,('linear dichroism technique' and 'x-ray probe technique'),,,,,,,,
1301,http://purl.org/pan-science/PaNET/PaNET01301,x-ray magnetochiral dichroism technique,XMChiD,,,,owl:Class,,,,,,,,,('magnetochiral dichroism technique' and 'x-ray probe technique'),,,,,,,,
1302,http://purl.org/pan-science/PaNET/PaNET01302,x-ray natural circular dichroism technique,XNCD,,,,owl:Class,,,,,,,,,('natural circular dichroism technique' and 'x-ray probe technique'),,,,,,,,
1303,http://purl.org/pan-science/PaNET/PaNET01303,x-ray natural linear dichroism technique,XNLD,,,,owl:Class,,,,,,,,,('natural linear dichroism technique' and 'x-ray probe technique'),,,,,,,,
1304,http://purl.org/pan-science/PaNET/PaNET01304,fragment screening technique,crystallographic fragment screening,,,https://en.wikipedia.org/wiki/Fragment-based_lead_discovery,owl:Class,,,,,,,,,('macromolecular crystallography technique' and 'drug fragment binding technique'),,,,,,,,
1305,http://purl.org/pan-science/PaNET/PaNET01305,long wavelength crystallography technique,,,,,owl:Class,,,,,,,,,('macromolecular crystallography technique' and 'tender x-ray probe technique'),,,,,,,,
1306,http://purl.org/pan-science/PaNET/PaNET01306,microfocus macromolecular crystallography technique,microfocus MX,,,,owl:Class,,,,,,,,,('macromolecular crystallography technique' and 'microfocus x-ray scattering technique'),,,,,,,,
1307,http://purl.org/pan-science/PaNET/PaNET01307,nanofocus macromolecular crystallography technique,nanofocus MX,,,,owl:Class,,,,,,,,,('macromolecular crystallography technique' and 'nanofocus x-ray scattering technique'),,,,,,,,
1308,http://purl.org/pan-science/PaNET/PaNET01308,molecular replacement technique,MR,,,https://en.wikipedia.org/wiki/Molecular_replacement,owl:Class,macromolecular crystallography technique,,,,,,,,,,,,,,,,
1309,http://purl.org/pan-science/PaNET/PaNET01309,time resolved serial femtosecond crystallography technique,TR-SFX,,,,owl:Class,,,,,,,,,('serial femtosecond crystallography technique' and 'time dependent diffraction technique'),,,,,,,,
1310,http://purl.org/pan-science/PaNET/PaNET01310,fixed target serial synchrotron crystallography technique,FT-SSX,,,,owl:Class,serial synchrotron crystallography technique,,,,,,,,,,,,,,,,
1311,http://purl.org/pan-science/PaNET/PaNET01311,lipidic cubic phase serial synchrotron crystallography technique,LCP-SSX,,,,owl:Class,serial synchrotron crystallography technique,,,,,,,,,,,,,,,,
1312,http://purl.org/pan-science/PaNET/PaNET01312,time resolved serial synchrotron crystallography technique,TR-SSX,,,,owl:Class,,,,,,,,,('serial synchrotron crystallography technique' and 'time dependent diffraction technique'),,,,,,,,
1313,http://purl.org/pan-science/PaNET/PaNET01313,magnetic x-ray tomography technique,,,,,owl:Class,,,,,,,,,('magnetism technique' and 'x-ray tomography technique'),,,,,,,,
1314,http://purl.org/pan-science/PaNET/PaNET01314,correlative light x-ray microscopy technique,CLXM,,,,owl:Class,,,,,,,,,('x-ray microscopy technique' and 'optical microscopy technique'),,,,,,,,
1315,http://purl.org/pan-science/PaNET/PaNET01315,cryo x-ray microscopy technique,,,,,owl:Class,x-ray microscopy technique,,,,,,,,,,,,,,,,
1316,http://purl.org/pan-science/PaNET/PaNET01316,grazing incidence wide angle scattering technique,GIWAXS,,,,owl:Class,,,,,,,,,('wide angle x-ray scattering technique' and 'grazing incidence diffraction technique'),,,,,,,,
1317,http://purl.org/pan-science/PaNET/PaNET01317,high resolution angle resolved photoemission spectroscopy technique,HR-ARPES,,,,owl:Class,,,,,,,,,('angle resolved photoemission spectroscopy technique' and 'high resolution photoelectron spectroscopy technique'),,,,,,,,
1318,http://purl.org/pan-science/PaNET/PaNET01318,atomic force microscopy technique,AFM,,,https://en.wikipedia.org/wiki/Atomic_force_microscopy,owl:Class,,,,,,,,,('solid probe technique' and 'force measurement technique' and 'scanning probe technique' and 'microscopy technique'),,,,,,,,
1319,http://purl.org/pan-science/PaNET/PaNET01319,atomic force microscope infrared spectroscopy technique,AFM-IR,,,https://en.wikipedia.org/wiki/AFM-IR,owl:Class,,,,,,,,,('atomic force microscopy technique' and 'infrared spectroscopy technique'),,,,,,,,
1320,http://purl.org/pan-science/PaNET/PaNET01320,fourier transform infrared spectroscopy technique,FTIR,,,https://en.wikipedia.org/wiki/Fourier-transform_infrared_spectroscopy,owl:Class,infrared spectroscopy technique,interferometry technique,,,,,,,,,,,,,,,
1321,http://purl.org/pan-science/PaNET/PaNET01321,energy dispersive extended x-ray absorption fine structure technique,EDE,ED-EXAFS,,,owl:Class,,,,,,,,,('energy dispersive x-ray spectroscopy technique' and 'extended x-ray absorption fine structure technique'),,,,,,,,
1322,http://purl.org/pan-science/PaNET/PaNET01322,microfocus x-ray absorption spectroscopy technique,,,,,owl:Class,,,,,,,,,('microfocussed probe technique' and 'x-ray absorption spectroscopy technique'),,,,,,,,
1323,http://purl.org/pan-science/PaNET/PaNET01323,radiotherapy technique,radiation therapy,,,https://en.wikipedia.org/wiki/Radiation_therapy,owl:Class,,,,,,,,radiotherapy,,,,,,,,,
1324,http://purl.org/pan-science/PaNET/PaNET01324,surface crystallography technique,obtain surface atomic structure,,,,owl:Class,,,,,,,,surface crystallography,,,,,,,,,
1325,http://purl.org/pan-science/PaNET/PaNET01325,borrmann effect technique,,,,https://en.wikipedia.org/wiki/Borrmann_effect,owl:Class,x-ray standing wave technique,single crystal diffraction technique,dynamical diffraction technique,,,,,,,,,,,,,,
1326,http://purl.org/pan-science/PaNET/PaNET01326,birefringence technique,,,,,owl:Class,,,,,,,,,('refraction technique' and 'versus photon linear polarization technique'),,,,,,,,
1327,http://purl.org/pan-science/PaNET/PaNET01327,x-ray birefringence imaging  technique,XBI,,,https://en.wikipedia.org/wiki/X-ray_birefringence_imaging,owl:Class,,,,,,,,,('birefringence technique' and 'imaging technique'),,,,,,,,
1328,http://purl.org/pan-science/PaNET/PaNET01328,divergent beam diffraction technique,,,,,owl:Class,,,,,,divergent beam diffraction,,,,,,,,,,,
1329,http://purl.org/pan-science/PaNET/PaNET01329,kossel lines technique,,,,,owl:Class,,,,,,,,,('divergent beam diffraction technique' and 'x-ray fluorescence technique'),,,,,,,,
1330,http://purl.org/pan-science/PaNET/PaNET01330,diffuse multiple scattering technique,,,,,owl:Class,,,,,,,,,('divergent beam diffraction technique' and 'diffuse scattering technique'),,,,,,,,
,,,,,,,,,,,,,,,,,,,,,,,,
,,,,,,,,,,,,,,,,,,,,,,,,
2000000,http://purl.org/pan-science/PaNET/PaNET2000000,Photon and Neutron related concepts,,,,,,,,,,,,,,,,,,,,,,
2001000,http://purl.org/pan-science/PaNET/PaNET2001000,Probe,,,Types of experimental probes,,owl:Class,Photon and Neutron related concepts,,,,,,,,,,,,,,,,
2002000,http://purl.org/pan-science/PaNET/PaNET2002000,Purpose,,,Types of purposes,,owl:Class,Photon and Neutron related concepts,,,,,,,,,,,,,,,,
2003000,http://purl.org/pan-science/PaNET/PaNET2003000,Process,,,Types of experimental physical processes,,owl:Class,Photon and Neutron related concepts,,,,,,,,,,,,,,,,
2004000,http://purl.org/pan-science/PaNET/PaNET2004000,Functional Dependence,,,Types of functional dependences,,owl:Class,Photon and Neutron related concepts,,,,,,,,,,,,,,,,
,,,,,,,,,,,,,,,,,,,,,,,,
2011000,http://purl.org/pan-science/PaNET/PaNET2011000,photon,,,Photon probes,,owl:Class,Probe,,,,,,,,,,,,,,,,
2011001,http://purl.org/pan-science/PaNET/PaNET2011001,neutron,,,Neutron probes,,owl:Class,Probe,,,,,,,,,,,,,,,,
2011002,http://purl.org/pan-science/PaNET/PaNET2011002,muon,,,Muon probes,,owl:Class,Probe,,,,,,,,,,,,,,,,
2011003,http://purl.org/pan-science/PaNET/PaNET2011003,solid probe,,,Solid probes,,owl:Class,Probe,,,,,,,,,,,,,,,,
2011004,http://purl.org/pan-science/PaNET/PaNET2011004,scanning probe,,,Scanning probes,,owl:Class,Probe,,,,,,,,,,,,,,,,
2011005,http://purl.org/pan-science/PaNET/PaNET2011005,pulsed probe,,,Pulsed probes,,owl:Class,Probe,,,,,,,,,,,,,,,,
2011006,http://purl.org/pan-science/PaNET/PaNET2011006,microfocussed probe,,,Microfocussed probes,,owl:Class,Probe,,,,,,,,,,,,,,,,
,,,,,,,,,,,,,,,,,,,,,,,,
2012000,http://purl.org/pan-science/PaNET/PaNET2012000,scattering,,,,,owl:Class,Process,,,,,,,,,,,,,,,,
2012001,http://purl.org/pan-science/PaNET/PaNET2012001,emission,,,,,owl:Class,Process,,,,,,,,,,,,,,,,
2012002,http://purl.org/pan-science/PaNET/PaNET2012002,absorption,,,,,owl:Class,Process,,,,,,,,,,,,,,,,
2012003,http://purl.org/pan-science/PaNET/PaNET2012003,propagation,,,,,owl:Class,Process,,,,,,,,,,,,,,,,
2012004,http://purl.org/pan-science/PaNET/PaNET2012004,refraction,,,,,owl:Class,Process,,,,,,,,,,,,,,,,
2012005,http://purl.org/pan-science/PaNET/PaNET2012005,reflection,,,,,owl:Class,Process,,,,,,,,,,,,,,,,
2012006,http://purl.org/pan-science/PaNET/PaNET2012006,resonance phenomenon,,,,,owl:Class,Process,,,,,,,,,,,,,,,,
2012007,http://purl.org/pan-science/PaNET/PaNET2012007,dispersion,,,,,owl:Class,Process,,,,,,,,,,,,,,,,
2012008,http://purl.org/pan-science/PaNET/PaNET2012008,interferometry,,,,,owl:Class,Process,,,,,,,,,,,,,,,,
2012009,http://purl.org/pan-science/PaNET/PaNET2012009,force measurement,,,,,owl:Class,Process,,,,,,,,,,,,,,,,
2012010,http://purl.org/pan-science/PaNET/PaNET2012010,nonlinear interaction,,,,,owl:Class,Process,,,,,,,,,,,,,,,,
,,,,,,,,,,,,,,,,,,,,,,,,
2013000,http://purl.org/pan-science/PaNET/PaNET2013000,energy,,,,,owl:Class,Functional Dependence,,,,,,,,,,,,,,,,
2013001,http://purl.org/pan-science/PaNET/PaNET2013001,momentum transfer,,,,,owl:Class,Functional Dependence,,,,,,,,,,,,,,,,
2013002,http://purl.org/pan-science/PaNET/PaNET2013002,polarization,,,,,owl:Class,Functional Dependence,,,,,,,,,,,,,,,,
2013003,http://purl.org/pan-science/PaNET/PaNET2013003,position,,,,,owl:Class,Functional Dependence,,,,,,,,,,,,,,,,
2013004,http://purl.org/pan-science/PaNET/PaNET2013004,time,,,,,owl:Class,Functional Dependence,,,,,,,,,,,,,,,,
2013005,http://purl.org/pan-science/PaNET/PaNET2013005,emission mass,,,,,owl:Class,Functional Dependence,,,,,,,,,,,,,,,,
2013006,http://purl.org/pan-science/PaNET/PaNET2013006,sample state,,,,,owl:Class,Functional Dependence,,,,,,,,,,,,,,,,
,,,,,,,,,,,,,,,,,,,,,,,,
2014000,http://purl.org/pan-science/PaNET/PaNET2014000,obtain atomic structure,,,,,owl:Class,Purpose,,,,,,,,,,,,,,,,
2014001,http://purl.org/pan-science/PaNET/PaNET2014001,obtain spatial map,,,,,owl:Class,Purpose,,,,,,,,,,,,,,,,
2014002,http://purl.org/pan-science/PaNET/PaNET2014002,obtain electronic ground state properties,,,,,owl:Class,Purpose,,,,,,,,,,,,,,,,
2014003,http://purl.org/pan-science/PaNET/PaNET2014003,obtain dynamics,,,,,owl:Class,Purpose,,,,,,,,,,,,,,,,
2014004,http://purl.org/pan-science/PaNET/PaNET2014004,therapy,,,,,owl:Class,Purpose,,,,,,,,,,,,,,,,
2014005,http://purl.org/pan-science/PaNET/PaNET2014005,drug fragment binding,,,,,owl:Class,Purpose,,,,,,,,,,,,,,,,
2014006,http://purl.org/pan-science/PaNET/PaNET2014006,obtain internal field,,,,,owl:Class,Purpose,,,,,,,,,,,,,,,,
2014007,http://purl.org/pan-science/PaNET/PaNET2014007,characterize excitations,,,,,owl:Class,Purpose,,,,,,,,,,,,,,,,
2014008,http://purl.org/pan-science/PaNET/PaNET2014008,manufacturing,,,,,owl:Class,Purpose,,,,,,,,,,,,,,,,
2014009,http://purl.org/pan-science/PaNET/PaNET2014009,testing,,,,,owl:Class,Purpose,,,,,,,,,,,,,,,,
2014010,http://purl.org/pan-science/PaNET/PaNET2014010,medical application,,,,,owl:Class,Purpose,,,,,,,,,,,,,,,,
2014011,http://purl.org/pan-science/PaNET/PaNET2014011,chiral determination,,,,,owl:Class,Purpose,,,,,,,,,,,,,,,,
2014012,http://purl.org/pan-science/PaNET/PaNET2014012,magnetism study,,,,,owl:Class,Purpose,,,,,,,,,,,,,,,,
,,,,,,,,,,,,,,,,,,,,,,,,
2020000,http://purl.org/pan-science/PaNET/PaNET2020000,ultrafast probe,,,,,owl:Class,pulsed probe,,,,,,,,,,,,,,,,
2020001,http://purl.org/pan-science/PaNET/PaNET2020001,nanofocussed probe,,,,,owl:Class,microfocussed probe,,,,,,,,,,,,,,,,
2020002,http://purl.org/pan-science/PaNET/PaNET2020002,IR photon,,,,,owl:Class,photon,,,,,,,,,,,,,,,,
2020003,http://purl.org/pan-science/PaNET/PaNET2020003,THz photon,,,,,owl:Class,photon,,,,,,,,,,,,,,,,
2020004,http://purl.org/pan-science/PaNET/PaNET2020004,UV visible photon,,,,,owl:Class,photon,,,,,,,,,,,,,,,,
2020005,http://purl.org/pan-science/PaNET/PaNET2020005,visible photon,,,,,owl:Class,UV visible photon,,,,,,,,,,,,,,,,
2020006,http://purl.org/pan-science/PaNET/PaNET2020006,UV photon,,,,,owl:Class,UV visible photon,,,,,,,,,,,,,,,,
2020007,http://purl.org/pan-science/PaNET/PaNET2020007,VUV photon,,,,,owl:Class,UV photon,,,,,,,,,,,,,,,,
2020008,http://purl.org/pan-science/PaNET/PaNET2020008,EUV photon,,,,,owl:Class,VUV photon,,,,,,,,,,,,,,,,
2020009,http://purl.org/pan-science/PaNET/PaNET2020009,x-ray,,,,,owl:Class,photon,,,,,,,,,,,,,,,,
2020010,http://purl.org/pan-science/PaNET/PaNET2020010,hard x-ray,,,,,owl:Class,x-ray,,,,,,,,,,,,,,,,
2020011,http://purl.org/pan-science/PaNET/PaNET2020011,tender x-ray,,,,,owl:Class,x-ray,,,,,,,,,,,,,,,,
2020012,http://purl.org/pan-science/PaNET/PaNET2020012,soft x-ray,,,,,owl:Class,x-ray,,,,,,,,,,,,,,,,
2020013,http://purl.org/pan-science/PaNET/PaNET2020013,thermal neutron beam,,,,,owl:Class,neutron,,,,,,,,,,,,,,,,
2020014,http://purl.org/pan-science/PaNET/PaNET2020014,cold neutron beam,,,,,owl:Class,thermal neutron beam,,,,,,,,,,,,,,,,
2020015,http://purl.org/pan-science/PaNET/PaNET2020015,monochromatic neutron beam,,,,,owl:Class,neutron,,,,,,,,,,,,,,,,
2020016,http://purl.org/pan-science/PaNET/PaNET2020016,elastic scattering,,,,,owl:Class,scattering,,,,,,,,,,,,,,,,
2020017,http://purl.org/pan-science/PaNET/PaNET2020017,diffuse scattering,,,,,owl:Class,scattering,,,,,,,,,,,,,,,,
2020018,http://purl.org/pan-science/PaNET/PaNET2020018,diffraction,,,,,owl:Class,elastic scattering,,,,,,,,,,,,,,,,
2020019,http://purl.org/pan-science/PaNET/PaNET2020019,dynamical diffraction,,,,,owl:Class,diffraction ,,,,,,,,,,,,,,,,
2020020,http://purl.org/pan-science/PaNET/PaNET2020020,coherent diffraction,,,,,owl:Class,diffraction ,,,,,,,,,,,,,,,,
2020021,http://purl.org/pan-science/PaNET/PaNET2020021,reference beam,,,,,owl:Class,diffraction ,,,,,,,,,,,,,,,,
2020022,http://purl.org/pan-science/PaNET/PaNET2020022,incoherent scattering,,,,,owl:Class,scattering,,,,,,,,,,,,,,,,
2020023,http://purl.org/pan-science/PaNET/PaNET2020023,inelastic scattering,,,,,owl:Class,incoherent scattering,,,,,,,,,,,,,,,,
2020024,http://purl.org/pan-science/PaNET/PaNET2020024,quasielastic scattering,,,,,owl:Class,inelastic scattering,,,,,,,,,,,,,,,,
2020025,http://purl.org/pan-science/PaNET/PaNET2020025,high momentum transfer scattering,,,,,owl:Class,scattering,,,,,,,,,,,,,,,,
2020026,http://purl.org/pan-science/PaNET/PaNET2020026,low momentum transfer scattering,,,,,owl:Class,scattering,,,,,,,,,,,,,,,,
2020027,http://purl.org/pan-science/PaNET/PaNET2020027,ultra low momentum transfer scattering,,,,,owl:Class,low momentum transfer scattering,,,,,,,,,,,,,,,,
2020028,http://purl.org/pan-science/PaNET/PaNET2020028,low surface momentum transfer scattering,,,,,owl:Class,scattering,,,,,,,,,,,,,,,,
2020029,http://purl.org/pan-science/PaNET/PaNET2020029,coherent emission,,,,,owl:Class,emission,,,,,,,,,,,,,,,,
2020030,http://purl.org/pan-science/PaNET/PaNET2020030,photon emission,,,,,owl:Class,emission,,,,,,,,,,,,,,,,
2020031,http://purl.org/pan-science/PaNET/PaNET2020031,visible photon emission,,,,,owl:Class,photon emission,,,,,,,,,,,,,,,,
2020032,http://purl.org/pan-science/PaNET/PaNET2020032,x-ray emission,,,,,owl:Class,photon emission,,,,,,,,,,,,,,,,
2020033,http://purl.org/pan-science/PaNET/PaNET2020033,gamma-ray emission,,,,,owl:Class,photon emission,,,,,,,,,,,,,,,,
2020034,http://purl.org/pan-science/PaNET/PaNET2020034,electron emission,,,,,owl:Class,emission,,,,,,,,,,,,,,,,
2020035,http://purl.org/pan-science/PaNET/PaNET2020035,ion emission,,,,,owl:Class,emission,,,,,,,,,,,,,,,,
2020036,http://purl.org/pan-science/PaNET/PaNET2020036,nuclear resonance,,,,,owl:Class,resonance phenomenon,,,,,,,,,,,,,,,,
2020037,http://purl.org/pan-science/PaNET/PaNET2020037,muon spin resonance,,,,,owl:Class,resonance phenomenon,,,,,,,,,,,,,,,,
2020038,http://purl.org/pan-science/PaNET/PaNET2020038,spin echo technique,,,,,owl:Class,resonance phenomenon,,,,,,,,,,,,,,,,
2020039,http://purl.org/pan-science/PaNET/PaNET2020039,electronic excitation,,,,,owl:Class,resonance phenomenon,,,,,,,,,,,,,,,,
2020040,http://purl.org/pan-science/PaNET/PaNET2020040,atomic core excitation,,,,,owl:Class,electronic excitation,,,,,,,,,,,,,,,,
2020041,http://purl.org/pan-science/PaNET/PaNET2020041,photo excitation,,,,,owl:Class,electronic excitation,,,,,,,,,,,,,,,,
2020042,http://purl.org/pan-science/PaNET/PaNET2020042,incident energy,,,,,owl:Class,energy,,,,,,,,,,,,,,,,
2020043,http://purl.org/pan-science/PaNET/PaNET2020043,emitted energy,,,,,owl:Class,energy,,,,,,,,,,,,,,,,
2020044,http://purl.org/pan-science/PaNET/PaNET2020044,emission momentum,,,,,owl:Class,emitted energy,,,,,,,,,,,,,,,,
2020045,http://purl.org/pan-science/PaNET/PaNET2020045,energy loss,,,,,owl:Class,energy,,,,,,,,,,,,,,,,
2020046,http://purl.org/pan-science/PaNET/PaNET2020046,emitted polarization,,,,,owl:Class,polarization,,,,,,,,,,,,,,,,
2020047,http://purl.org/pan-science/PaNET/PaNET2020047,sample temperature,,,,,owl:Class,sample state,,,,,,,,,,,,,,,,
2020048,http://purl.org/pan-science/PaNET/PaNET2020048,sample pressure,,,,,owl:Class,sample state,,,,,,,,,,,,,,,,
2020049,http://purl.org/pan-science/PaNET/PaNET2020049,sample magnetic field,,,,,owl:Class,sample state,,,,,,,,,,,,,,,,
2020050,http://purl.org/pan-science/PaNET/PaNET2020050,sample electric field,,,,,owl:Class,sample state,,,,,,,,,,,,,,,,
2020051,http://purl.org/pan-science/PaNET/PaNET2020051,obtain high resolution spatial map,,,,,owl:Class,obtain spatial map,,,,,,,,,,,,,,,,
2020052,http://purl.org/pan-science/PaNET/PaNET2020052,obtain 3D spatial map,,,,,owl:Class,obtain spatial map,,,,,,,,,,,,,,,,
2020053,http://purl.org/pan-science/PaNET/PaNET2020053,obtain electronic density of states,,,,,owl:Class,obtain electronic ground state properties,,,,,,,,,,,,,,,,
2020054,http://purl.org/pan-science/PaNET/PaNET2020054,obtain electronic density of occupied states,,,,,owl:Class,obtain electronic density of states,,,,,,,,,,,,,,,,
2020055,http://purl.org/pan-science/PaNET/PaNET2020055,obtain electronic density of unoccupied states,,,,,owl:Class,obtain electronic density of states,,,,,,,,,,,,,,,,
2020056,http://purl.org/pan-science/PaNET/PaNET2020056,obtain electronic band structure,,,,,owl:Class,obtain electronic ground state properties,,,,,,,,,,,,,,,,
2020057,http://purl.org/pan-science/PaNET/PaNET2020057,obtain atomic tensor properties,,,,,owl:Class,obtain electronic ground state properties,,,,,,,,,,,,,,,,
2020058,http://purl.org/pan-science/PaNET/PaNET2020058,obtain magnetic vector,,,,,owl:Class,obtain atomic tensor properties,,,,,,,,,,,,,,,,
2020059,http://purl.org/pan-science/PaNET/PaNET2020059,obtain charge quadrupole,,,,,owl:Class,obtain atomic tensor properties,,,,,,,,,,,,,,,,
2020060,http://purl.org/pan-science/PaNET/PaNET2020060,obtain atomic magnetic structure,,,,,owl:Class,obtain electronic ground state properties,,,,,,,,,,,,,,,,
2020061,http://purl.org/pan-science/PaNET/PaNET2020061,obtain charge density,,,,,owl:Class,obtain electronic ground state properties,,,,,,,,,,,,,,,,
2020062,http://purl.org/pan-science/PaNET/PaNET2020062,obtain magnetic density,,,,,owl:Class,obtain electronic ground state properties,,,,,,,,,,,,,,,,
2020063,http://purl.org/pan-science/PaNET/PaNET2020063,crystallographic study,,,,,owl:Class,obtain atomic structure,,,,,,,,,,,,,,,,
2020064,http://purl.org/pan-science/PaNET/PaNET2020064,obtain local coordination,,,,,owl:Class,obtain atomic structure,,,,,,,,,,,,,,,,
2020065,http://purl.org/pan-science/PaNET/PaNET2020065,characterize electronic excitations,,,,,owl:Class,characterize excitations,,,,,,,,,,,,,,,,
2020066,http://purl.org/pan-science/PaNET/PaNET2020066,characterize magnetic excitations,,,,,owl:Class,characterize electronic excitations,,,,,,,,,,,,,,,,
2020067,http://purl.org/pan-science/PaNET/PaNET2020067,characterize lattice excitations,,,,,owl:Class,characterize excitations,,,,,,,,,,,,,,,,
2020068,http://purl.org/pan-science/PaNET/PaNET2020068,fluorescence luminescence,,,,,owl:Class,visible photon emission,,,,,,,,,,,,,,,,
2020069,http://purl.org/pan-science/PaNET/PaNET2020069,grazing incidence diffraction,,,,,owl:Class,low surface momentum transfer scattering,,,,,,,,,,,,,,,,
2020070,http://purl.org/pan-science/PaNET/PaNET2020070,imaging,,,,,owl:Class,,,,,,,,,,obtain spatial map,,,,,,,
2020071,http://purl.org/pan-science/PaNET/PaNET2020071,luminescence,,,,,owl:Class,visible photon emission,,,,,,,,,,,,,,,,
2020072,http://purl.org/pan-science/PaNET/PaNET2020072,small angle scattering,,,,,owl:Class,low momentum transfer scattering,,,,,,,,,,,,,,,,
2020073,http://purl.org/pan-science/PaNET/PaNET2020073,wide angle scattering,,,,,owl:Class,high momentum transfer scattering,,,,,,,,,,,,,,,,
2020074,http://purl.org/pan-science/PaNET/PaNET2020074,x-ray fluorescence,,,,,owl:Class,x-ray emission,,,,,,,,,,,,,,,,
2020075,http://purl.org/pan-science/PaNET/PaNET2020075,instrumentation testing,,,,,owl:Class,testing,,,,,,,,,,,,,,,,
2020076,http://purl.org/pan-science/PaNET/PaNET2020076,optics characterization,,,,,owl:Class,instrumentation testing,,,,,,,,,,,,,,,,
2020077,http://purl.org/pan-science/PaNET/PaNET2020077,lithography,,,,,owl:Class,manufacturing,,,,,,,,,,,,,,,,
2020078,http://purl.org/pan-science/PaNET/PaNET2020078,nonresonant diffraction,,,,,owl:Class,diffraction ,,,,,,,,,,,,,,,,
2020079,http://purl.org/pan-science/PaNET/PaNET2020079,nanoimprint lithography,,,,,owl:Class,lithography ,,,,,,,,,,,,,,,,
2020080,http://purl.org/pan-science/PaNET/PaNET2020080,grayscale lithography,,,,,owl:Class,lithography ,,,,,,,,,,,,,,,,
2020081,http://purl.org/pan-science/PaNET/PaNET2020081,polymer micro and nanografting,,,,,owl:Class,manufacturing,,,,,,,,,,,,,,,,
2020082,http://purl.org/pan-science/PaNET/PaNET2020082,radiotherapy,,,,,owl:Class,therapy,,,,,,,,,,,,,,,,
2020083,http://purl.org/pan-science/PaNET/PaNET2020083,surface crystallography,,,,,owl:Class,obtain atomic structure,,,,,,,,,,,,,,,,
2020084,http://purl.org/pan-science/PaNET/PaNET2020084,divergent beam diffraction,,,,,owl:Class,diffraction ,,,,,,,,,,,,,,,,
,,,,,,,,,,,,,,,,,,,,,,,,
1000000,http://purl.org/pan-science/PaNET/PaNET1000000,Photon and Neutron technique relationships,,,,,owl:ObjectProperty,,,,,,,,,,,,,,,photon and neutron technique,Photon and Neutron related concepts,asymmetric|irreflexive
1001000,http://purl.org/pan-science/PaNET/PaNET1001000,definedByProbe,,,,,owl:ObjectProperty,,,,,,,,,,,,,,Photon and Neutron technique relationships,photon and neutron technique,Probe,asymmetric|irreflexive
1002000,http://purl.org/pan-science/PaNET/PaNET1002000,definedByProcess,,,,,owl:ObjectProperty,,,,,,,,,,,,,,Photon and Neutron technique relationships,photon and neutron technique,Process,asymmetric|irreflexive
1003000,http://purl.org/pan-science/PaNET/PaNET1003000,definedByDependence,,,,,owl:ObjectProperty,,,,,,,,,,,,,,Photon and Neutron technique relationships,photon and neutron technique,Functional Dependence,asymmetric|irreflexive
1004000,http://purl.org/pan-science/PaNET/PaNET1004000,definedByPurpose,,,,,owl:ObjectProperty,,,,,,,,,,,,,,Photon and Neutron technique relationships,photon and neutron technique,Purpose,asymmetric|irreflexive
